,Latitude,Longitude,Number,Street,City,State,County,Zip,url
120,34.200774,-118.135682,3323,N Marengo Ave,Altadena,CA,Los Angeles County,91001,https://www.homelessshelterdirectory.org/cgi-bin/id/shelter.cgi?shelter=15616
155,33.843345,-117.909122,626,N Pauline St,Anaheim,CA,Orange County,92805,https://www.homelessshelterdirectory.org/cgi-bin/id/shelter.cgi?shelter=15269
162,33.81534,-117.896978,1300,S Lewis St,Anaheim,CA,Orange County,92805,https://www.homelessshelterdirectory.org/cgi-bin/id/shelter.cgi?shelter=15728
164,33.805454,-117.883449,2400,Katella Ave,Anaheim,CA,Orange County,92806,https://www.homelessshelterdirectory.org/cgi-bin/id/shelter.cgi?shelter=15802
218,38.015262,-121.823801,1401,W 4th St,Antioch,CA,Contra Costa County,94509,https://www.homelessshelterdirectory.org/cgi-bin/id/shelter.cgi?shelter=7879
256,40.870954,-124.088567,1005,11th St,Arcata,CA,Humboldt County,95521,https://www.homelessshelterdirectory.org/cgi-bin/id/shelter.cgi?shelter=14203
263,35.485799,-120.670082,6370,Atascadero Ave,Atascadero,CA,San Luis Obispo County,93422,https://www.homelessshelterdirectory.org/cgi-bin/id/shelter.cgi?shelter=20427
264,38.936366,-121.104266,11442,E Ave W,Auburn,CA,Placer County,95603,https://www.homelessshelterdirectory.org/cgi-bin/id/shelter.cgi?shelter=14389
271,35.37551,-118.990876,816,E 21st St,Bakersfield,CA,Kern County,93305,https://www.homelessshelterdirectory.org/cgi-bin/id/shelter.cgi?shelter=11782
272,35.373507,-118.979079,1600,E Truxtun Ave,Bakersfield,CA,Kern County,93305,https://www.homelessshelterdirectory.org/cgi-bin/id/shelter.cgi?shelter=9622
273,35.405108,-119.025379,100,S Plymouth Ave,Bakersfield,CA,Kern County,93308,https://www.homelessshelterdirectory.org/cgi-bin/id/shelter.cgi?shelter=14588
274,35.412712,-119.036792,731,Decatur St,Bakersfield,CA,Kern County,93308,https://www.homelessshelterdirectory.org/cgi-bin/id/shelter.cgi?shelter=14589
281,34.896359,-117.027931,100,W Fredricks St,Barstow,CA,San Bernardino County,92311,https://www.homelessshelterdirectory.org/cgi-bin/id/shelter.cgi?shelter=7800
86,38.02618,-121.934429,2279,Willow Pass Rd,Bay Point,CA,Contra Costa County,94565,https://www.homelessshelterdirectory.org/cgi-bin/id/shelter.cgi?shelter=7717
106,33.988868,-118.163568,5650,Rickenbacker Rd,Bell Gardens,CA,Los Angeles County,90201,https://www.homelessshelterdirectory.org/cgi-bin/id/shelter.cgi?shelter=13787
142,33.88177,-118.129747,9556,Flower St,Bellflower,CA,Los Angeles County,90706,https://www.homelessshelterdirectory.org/cgi-bin/id/shelter.cgi?shelter=13439
24,37.863869,-122.266048,2140,Dwight Way,Berkeley,CA,Alameda County,94704,https://www.homelessshelterdirectory.org/cgi-bin/id/shelter.cgi?shelter=15341
26,37.866348,-122.284348,2218,Acton St,Berkeley,CA,Alameda County,94702,https://www.homelessshelterdirectory.org/cgi-bin/id/shelter.cgi?shelter=15724
22,37.850981,-122.269974,1901,Fairview St,Berkeley,CA,Alameda County,94703,https://www.homelessshelterdirectory.org/cgi-bin/id/shelter.cgi?shelter=7174
25,37.863869,-122.266048,2140,Dwight Way,Berkeley,CA,Alameda County,94704,https://www.homelessshelterdirectory.org/cgi-bin/id/shelter.cgi?shelter=7153
32,37.880791,-122.304794,711,Harrison St,Berkeley,CA,Alameda County,94710,https://www.homelessshelterdirectory.org/cgi-bin/id/shelter.cgi?shelter=15759
219,37.940309,-121.684875,605,Sycamore Ave,Brentwood,CA,Contra Costa County,94513,https://www.homelessshelterdirectory.org/cgi-bin/id/shelter.cgi?shelter=8039
146,33.861517,-118.003453,6801,Western Ave,Buena Park,CA,Orange County,90621,https://www.homelessshelterdirectory.org/cgi-bin/id/shelter.cgi?shelter=15052
60,37.593508,-122.380636,1720,El Camino Real,Burlingame,CA,San Mateo County,94010,https://www.homelessshelterdirectory.org/cgi-bin/id/shelter.cgi?shelter=11581
63,37.577608,-122.35118,1450,Chapin Ave,Burlingame,CA,San Mateo County,94010,https://www.homelessshelterdirectory.org/cgi-bin/id/shelter.cgi?shelter=11688
303,32.671639,-115.488732,545,Encinas Ave,Calexico,CA,Imperial County,92231,https://www.homelessshelterdirectory.org/cgi-bin/id/shelter.cgi?shelter=11342
304,32.66967,-115.483589,1006,E 5th St,Calexico,CA,Imperial County,92231,https://www.homelessshelterdirectory.org/cgi-bin/id/shelter.cgi?shelter=11343
17,34.417347,-118.457422,18565,Soledad Canyon Rd,Canyon Country,CA,Los Angeles County,91351,https://www.homelessshelterdirectory.org/cgi-bin/id/shelter.cgi?shelter=11733
313,33.139221,-117.271876,2476,Impala Dr,Carlsbad,CA,San Diego County,92010,https://www.homelessshelterdirectory.org/cgi-bin/id/shelter.cgi?shelter=11341
340,39.723489,-121.83024,1297,Park Ave,Chico,CA,Butte County,95928,https://www.homelessshelterdirectory.org/cgi-bin/id/shelter.cgi?shelter=9661
341,39.719892,-121.810383,101,Silver Dollar Way,Chico,CA,Butte County,95928,https://www.homelessshelterdirectory.org/cgi-bin/id/shelter.cgi?shelter=9774
342,39.763915,-121.866425,181,E Shasta Ave,Chico,CA,Butte County,95973,https://www.homelessshelterdirectory.org/cgi-bin/id/shelter.cgi?shelter=20333
190,32.63938,-117.084859,430,F St,Chula Vista,CA,San Diego County,91910,https://www.homelessshelterdirectory.org/cgi-bin/id/shelter.cgi?shelter=11344
328,38.807027,-123.016309,126,N Main St,Cloverdale,CA,Sonoma County,95425,https://www.homelessshelterdirectory.org/cgi-bin/id/shelter.cgi?shelter=12738
137,33.908108,-118.205069,1616,E Pine St,Compton,CA,Los Angeles County,90221,https://www.homelessshelterdirectory.org/cgi-bin/id/shelter.cgi?shelter=9732
143,33.888443,-118.202595,1806,E Alondra Blvd,Compton,CA,Los Angeles County,90221,https://www.homelessshelterdirectory.org/cgi-bin/id/shelter.cgi?shelter=20412
144,33.915556,-118.217913,2515,N Santa Fe Ave,Compton,CA,Los Angeles County,90222,https://www.homelessshelterdirectory.org/cgi-bin/id/shelter.cgi?shelter=13152
68,37.9689,-122.049096,1410,Danzig Plz,Concord,CA,Contra Costa County,94520,https://www.homelessshelterdirectory.org/cgi-bin/id/shelter.cgi?shelter=13127
69,37.971987,-122.042237,1850,Gateway Blvd,Concord,CA,Contra Costa County,94520,https://www.homelessshelterdirectory.org/cgi-bin/id/shelter.cgi?shelter=7125
71,37.975234,-122.037996,1849,Willow Pass Rd,Concord,CA,Contra Costa County,94520,https://www.homelessshelterdirectory.org/cgi-bin/id/shelter.cgi?shelter=7935
76,38.006704,-122.038042,2047,Arnold Industrial Way,Concord,CA,Contra Costa County,94520,https://www.homelessshelterdirectory.org/cgi-bin/id/shelter.cgi?shelter=7265
72,37.99171,-122.047697,1959,Solano Way,Concord,CA,Contra Costa County,94520,https://www.homelessshelterdirectory.org/cgi-bin/id/shelter.cgi?shelter=7812
209,33.885007,-117.568743,420,E Harrison St,Corona,CA,Riverside County,92879,https://www.homelessshelterdirectory.org/cgi-bin/id/shelter.cgi?shelter=9659
208,33.87722,-117.574765,507,S Vicentia Ave,Corona,CA,Riverside County,92882,https://www.homelessshelterdirectory.org/cgi-bin/id/shelter.cgi?shelter=14877
56,37.706313,-122.462942,50,Hillcrest Dr,Daly City,CA,San Mateo County,94014,https://www.homelessshelterdirectory.org/cgi-bin/id/shelter.cgi?shelter=8031
148,34.001663,-117.810397,1142,S Diamond Bar Blvd,Diamond Bar,CA,Los Angeles County,91765,https://www.homelessshelterdirectory.org/cgi-bin/id/shelter.cgi?shelter=15536
353,36.5454,-119.394089,511,N K St,Dinuba,CA,Tulare County,93618,https://www.homelessshelterdirectory.org/cgi-bin/id/shelter.cgi?shelter=13770
130,33.918566,-118.15548,8017,Cheyenne Ave,Downey,CA,Los Angeles County,90242,https://www.homelessshelterdirectory.org/cgi-bin/id/shelter.cgi?shelter=14260
127,34.139956,-117.96691,1755,E Huntington Dr,Duarte,CA,Los Angeles County,91010,https://www.homelessshelterdirectory.org/cgi-bin/id/shelter.cgi?shelter=14733
79,37.472418,-122.132857,1858,Bay Rd,East Palo Alto,CA,San Mateo County,94303,https://www.homelessshelterdirectory.org/cgi-bin/id/shelter.cgi?shelter=15016
80,37.471219,-122.134115,1798,Bay Rd,East Palo Alto,CA,San Mateo County,94303,https://www.homelessshelterdirectory.org/cgi-bin/id/shelter.cgi?shelter=12144
184,32.804561,-116.924472,1527,E Main St,El Cajon,CA,San Diego County,92021,https://www.homelessshelterdirectory.org/cgi-bin/id/shelter.cgi?shelter=11776
81,37.505165,-122.480179,99,Ave Alhambra,El Granada,CA,San Mateo County,94018,https://www.homelessshelterdirectory.org/cgi-bin/id/shelter.cgi?shelter=7327
102,34.087946,-118.028125,4501,Santa Anita Ave,El Monte,CA,Los Angeles County,91731,https://www.homelessshelterdirectory.org/cgi-bin/id/shelter.cgi?shelter=11237
21,37.829665,-122.279157,3850,San Pablo Ave,Emeryville,CA,Alameda County,94608,https://www.homelessshelterdirectory.org/cgi-bin/id/shelter.cgi?shelter=7839
199,33.11026,-117.077337,1207,S Escondido Blvd,Escondido,CA,San Diego County,92025,https://www.homelessshelterdirectory.org/cgi-bin/id/shelter.cgi?shelter=11351
201,33.125169,-117.091993,550,W Washington Ave,Escondido,CA,San Diego County,92025,https://www.homelessshelterdirectory.org/cgi-bin/id/shelter.cgi?shelter=11339
202,33.125169,-117.091993,550,W Washington Ave,Escondido,CA,San Diego County,92025,https://www.homelessshelterdirectory.org/cgi-bin/id/shelter.cgi?shelter=11346
203,33.138607,-117.093856,1301,Las Villas Way,Escondido,CA,San Diego County,92026,https://www.homelessshelterdirectory.org/cgi-bin/id/shelter.cgi?shelter=11345
257,40.80364,-124.170431,110,2nd St,Eureka,CA,Humboldt County,95501,https://www.homelessshelterdirectory.org/cgi-bin/id/shelter.cgi?shelter=14204
258,40.803291,-124.170347,107,3rd St,Eureka,CA,Humboldt County,95501,https://www.homelessshelterdirectory.org/cgi-bin/id/shelter.cgi?shelter=14205
259,40.798493,-124.164374,904,G St,Eureka,CA,Humboldt County,95501,https://www.homelessshelterdirectory.org/cgi-bin/id/shelter.cgi?shelter=11845
221,38.233017,-122.065239,360,Beck Ave,Fairfield,CA,Solano County,94533,https://www.homelessshelterdirectory.org/cgi-bin/id/shelter.cgi?shelter=12212
78,37.558499,-121.979612,1900,Mowry Ave,Fremont,CA,Alameda County,94538,https://www.homelessshelterdirectory.org/cgi-bin/id/shelter.cgi?shelter=8027
87,37.494408,-121.928107,588,Brown Rd,Fremont,CA,Alameda County,94539,https://www.homelessshelterdirectory.org/cgi-bin/id/shelter.cgi?shelter=14596
348,36.744787,-119.801964,137,N Yosemite Ave,Fresno,CA,Fresno County,93701,https://www.homelessshelterdirectory.org/cgi-bin/id/shelter.cgi?shelter=10536
349,36.724897,-119.788282,412,F St,Fresno,CA,Fresno County,93706,https://www.homelessshelterdirectory.org/cgi-bin/id/shelter.cgi?shelter=11781
351,36.724706,-119.789052,421,F St,Fresno,CA,Fresno County,93706,https://www.homelessshelterdirectory.org/cgi-bin/id/shelter.cgi?shelter=20421
352,36.723784,-119.786153,263,G St,Fresno,CA,Fresno County,93706,https://www.homelessshelterdirectory.org/cgi-bin/id/shelter.cgi?shelter=10535
346,36.742053,-119.780396,1046,T St,Fresno,CA,Fresno County,93721,https://www.homelessshelterdirectory.org/cgi-bin/id/shelter.cgi?shelter=20422
347,36.753338,-119.804462,805,N Echo Ave,Fresno,CA,Fresno County,93728,https://www.homelessshelterdirectory.org/cgi-bin/id/shelter.cgi?shelter=12946
350,36.725123,-119.789493,445,F St,Fresno,CA,Fresno County,93706,https://www.homelessshelterdirectory.org/cgi-bin/id/shelter.cgi?shelter=10534
147,33.872686,-117.923604,115,E Wilshire Ave,Fullerton,CA,Orange County,92832,https://www.homelessshelterdirectory.org/cgi-bin/id/shelter.cgi?shelter=15265
145,33.715082,-117.862104,612,E Warner Ave,Santa Ana,CA,Orange County,92707,https://www.homelessshelterdirectory.org/cgi-bin/id/shelter.cgi?shelter=15271
239,37.001493,-121.560359,6980,Chestnut St,Gilroy,CA,Santa Clara County,95020,https://www.homelessshelterdirectory.org/cgi-bin/id/shelter.cgi?shelter=7688
123,34.154423,-118.270099,609,Chester St,Glendale,CA,Los Angeles County,91203,https://www.homelessshelterdirectory.org/cgi-bin/id/shelter.cgi?shelter=13320
116,34.12862,-118.26141,437,Fernando Ct,Glendale,CA,Los Angeles County,91204,https://www.homelessshelterdirectory.org/cgi-bin/id/shelter.cgi?shelter=13318
119,34.136364,-118.258671,320,W Windsor Rd,Glendale,CA,Los Angeles County,91204,https://www.homelessshelterdirectory.org/cgi-bin/id/shelter.cgi?shelter=13321
117,34.15165,-118.247355,,E Lexington Dr,Glendale,CA,Los Angeles County,91206,https://www.homelessshelterdirectory.org/cgi-bin/id/shelter.cgi?shelter=13319
267,39.239586,-121.033394,1262,Sutton Way,Grass Valley,CA,Nevada County,95945,https://www.homelessshelterdirectory.org/cgi-bin/id/shelter.cgi?shelter=15355
125,34.010603,-117.979765,1345,Turnbull Canyon Rd,Hacienda Heights,CA,Los Angeles County,91745,https://www.homelessshelterdirectory.org/cgi-bin/id/shelter.cgi?shelter=11245
361,36.324976,-119.656962,805,W 7th St,Hanford,CA,Kings County,93230,https://www.homelessshelterdirectory.org/cgi-bin/id/shelter.cgi?shelter=15905
362,36.324976,-119.657164,807,W 7th St,Hanford,CA,Kings County,93230,https://www.homelessshelterdirectory.org/cgi-bin/id/shelter.cgi?shelter=15906
47,37.681266,-122.093415,21455,Birch St,Hayward,CA,Alameda County,94541,https://www.homelessshelterdirectory.org/cgi-bin/id/shelter.cgi?shelter=14592
48,37.681266,-122.093415,21455,Birch St,Hayward,CA,Alameda County,94541,https://www.homelessshelterdirectory.org/cgi-bin/id/shelter.cgi?shelter=7445
49,37.666195,-122.10372,258,W A St,Hayward,CA,Alameda County,94541,https://www.homelessshelterdirectory.org/cgi-bin/id/shelter.cgi?shelter=14595
50,37.669961,-122.090077,570,B St,Hayward,CA,Alameda County,94541,https://www.homelessshelterdirectory.org/cgi-bin/id/shelter.cgi?shelter=14591
52,37.675086,-122.079975,1180,B St,Hayward,CA,Alameda County,94541,https://www.homelessshelterdirectory.org/cgi-bin/id/shelter.cgi?shelter=7433
53,37.675396,-122.077003,22671,3rd St,Hayward,CA,Alameda County,94541,https://www.homelessshelterdirectory.org/cgi-bin/id/shelter.cgi?shelter=15007
55,37.651789,-122.090944,249,W Jackson St,Hayward,CA,Alameda County,94544,https://www.homelessshelterdirectory.org/cgi-bin/id/shelter.cgi?shelter=7634
278,33.743321,-116.979744,340,S Palm Ave,Hemet,CA,Riverside County,92543,https://www.homelessshelterdirectory.org/cgi-bin/id/shelter.cgi?shelter=20322
277,33.758922,-116.970894,200,E Menlo Ave,Hemet,CA,Riverside County,92543,https://www.homelessshelterdirectory.org/cgi-bin/id/shelter.cgi?shelter=14878
227,34.128748,-117.230221,2626,Pacific St,Highland,CA,San Bernardino County,92346,https://www.homelessshelterdirectory.org/cgi-bin/id/shelter.cgi?shelter=15705
315,36.846137,-121.404347,910,Monterey St,Hollister,CA,San Benito County,95023,https://www.homelessshelterdirectory.org/cgi-bin/id/shelter.cgi?shelter=15231
316,36.873493,-121.400166,1161,San Felipe Rd,Hollister,CA,San Benito County,95023,https://www.homelessshelterdirectory.org/cgi-bin/id/shelter.cgi?shelter=11908
171,33.717927,-117.999593,7372,Prince Dr,Huntington Beach,CA,Orange County,92647,https://www.homelessshelterdirectory.org/cgi-bin/id/shelter.cgi?shelter=15345
205,33.688933,-117.98815,18822,Beach Blvd,Huntington Beach,CA,Orange County,92648,https://www.homelessshelterdirectory.org/cgi-bin/id/shelter.cgi?shelter=14331
206,33.660677,-117.999193,419,Main St,Huntington Beach,CA,Orange County,92648,https://www.homelessshelterdirectory.org/cgi-bin/id/shelter.cgi?shelter=15289
207,33.659371,-118.000497,412,Olive Ave,Huntington Beach,CA,Orange County,92648,https://www.homelessshelterdirectory.org/cgi-bin/id/shelter.cgi?shelter=15278
121,33.981338,-118.216662,2965,E Gage Ave,Huntington Park,CA,Los Angeles County,90255,https://www.homelessshelterdirectory.org/cgi-bin/id/shelter.cgi?shelter=11228
326,33.71083,-116.205087,83791,Date Ave,Indio,CA,Riverside County,92201,https://www.homelessshelterdirectory.org/cgi-bin/id/shelter.cgi?shelter=10601
327,33.704501,-116.198145,47470,Van Buren St,Indio,CA,Riverside County,92201,https://www.homelessshelterdirectory.org/cgi-bin/id/shelter.cgi?shelter=14707
182,33.696861,-117.764945,5540,Trabuco Rd,Irvine,CA,Orange County,92620,https://www.homelessshelterdirectory.org/cgi-bin/id/shelter.cgi?shelter=13774
306,34.411353,-119.856612,976,Embarcadero Del Mar,Goleta,CA,Santa Barbara County,93117,https://www.homelessshelterdirectory.org/cgi-bin/id/shelter.cgi?shelter=20472
217,38.352965,-120.834147,10590,State Rte 88,Jackson,CA,Amador County,95642,https://www.homelessshelterdirectory.org/cgi-bin/id/shelter.cgi?shelter=8022
214,33.556419,-117.629792,999,Corporate Dr,Ladera Ranch,CA,Orange County,92694,https://www.homelessshelterdirectory.org/cgi-bin/id/shelter.cgi?shelter=15263
210,33.573152,-117.762544,20612,Laguna Cyn,Laguna Beach,CA,Orange County,92651,https://www.homelessshelterdirectory.org/cgi-bin/id/shelter.cgi?shelter=20388
287,33.627741,-117.328879,18569,Grand Ave,Lake Elsinore,CA,Riverside County,92530,https://www.homelessshelterdirectory.org/cgi-bin/id/shelter.cgi?shelter=20323
183,32.845752,-116.908139,13221,Idyl Dr,Lakeside,CA,San Diego County,92040,https://www.homelessshelterdirectory.org/cgi-bin/id/shelter.cgi?shelter=14230
366,34.698106,-118.144759,44933,Fern Ave,Lancaster,CA,Los Angeles County,93534,https://www.homelessshelterdirectory.org/cgi-bin/id/shelter.cgi?shelter=11218
367,34.703074,-118.154116,1321,W Ivesbrook St,Lancaster,CA,Los Angeles County,93534,https://www.homelessshelterdirectory.org/cgi-bin/id/shelter.cgi?shelter=15501
368,34.702937,-118.137311,45134,Sierra Hwy,Lancaster,CA,Los Angeles County,93534,https://www.homelessshelterdirectory.org/cgi-bin/id/shelter.cgi?shelter=11242
369,34.6724,-118.127542,43434,E Sahuayo St,Lancaster,CA,Los Angeles County,93535,https://www.homelessshelterdirectory.org/cgi-bin/id/shelter.cgi?shelter=15854
323,34.702987,-118.236523,45150,60th St W,Lancaster,CA,Los Angeles County,93536,https://www.homelessshelterdirectory.org/cgi-bin/id/shelter.cgi?shelter=20430
222,37.675726,-121.753084,3663,Pacific Ave,Livermore,CA,Alameda County,94550,https://www.homelessshelterdirectory.org/cgi-bin/id/shelter.cgi?shelter=8161
220,37.693112,-121.778976,1660,Portola Ave,Livermore,CA,Alameda County,94551,https://www.homelessshelterdirectory.org/cgi-bin/id/shelter.cgi?shelter=8040
223,37.687628,-121.785777,851,Rincon Ave,Livermore,CA,Alameda County,94551,https://www.homelessshelterdirectory.org/cgi-bin/id/shelter.cgi?shelter=10300
305,34.645254,-120.427756,2025,Sweeney Rd,Lompoc,CA,Santa Barbara County,93436,https://www.homelessshelterdirectory.org/cgi-bin/id/shelter.cgi?shelter=7212
159,33.767169,-118.187287,401,E Ocean Blvd,Long Beach,CA,Los Angeles County,90802,https://www.homelessshelterdirectory.org/cgi-bin/id/shelter.cgi?shelter=10357
152,33.784473,-118.1933,1430,Pacific Ave,Long Beach,CA,Los Angeles County,90813,https://www.homelessshelterdirectory.org/cgi-bin/id/shelter.cgi?shelter=14672
154,33.783389,-118.194128,1335,Pacific Ave,Long Beach,CA,Los Angeles County,90813,https://www.homelessshelterdirectory.org/cgi-bin/id/shelter.cgi?shelter=10485
156,33.781842,-118.192176,1230,Pine Ave,Long Beach,CA,Los Angeles County,90813,https://www.homelessshelterdirectory.org/cgi-bin/id/shelter.cgi?shelter=15872
157,33.782005,-118.209021,1301,W 12th St N,Long Beach,CA,Los Angeles County,90813,https://www.homelessshelterdirectory.org/cgi-bin/id/shelter.cgi?shelter=11240
149,33.803977,-118.06965,10911,Reagan St,Los Alamitos,CA,Orange County,90720,https://www.homelessshelterdirectory.org/cgi-bin/id/shelter.cgi?shelter=7237
129,34.103333,-118.314582,1754,Taft Ave,Los Angeles,CA,Los Angeles County,90028,https://www.homelessshelterdirectory.org/cgi-bin/id/shelter.cgi?shelter=9811
122,34.0223,-118.27511,3107,S Grand Ave,Los Angeles,CA,Los Angeles County,90007,https://www.homelessshelterdirectory.org/cgi-bin/id/shelter.cgi?shelter=13788
124,34.025696,-118.285121,3175,S Hoover St,Los Angeles,CA,Los Angeles County,90007,https://www.homelessshelterdirectory.org/cgi-bin/id/shelter.cgi?shelter=11758
131,34.01071,-118.32385,2814,W Martin Luther King Jr Blvd,Los Angeles,CA,Los Angeles County,90008,https://www.homelessshelterdirectory.org/cgi-bin/id/shelter.cgi?shelter=13814
138,34.006122,-118.338974,3761,Stocker St,View Park,CA,Los Angeles County,90008,https://www.homelessshelterdirectory.org/cgi-bin/id/shelter.cgi?shelter=7663
139,34.006122,-118.338974,3761,Stocker St,View Park,CA,Los Angeles County,90008,https://www.homelessshelterdirectory.org/cgi-bin/id/shelter.cgi?shelter=9801
105,34.05492,-118.23798,711,N Alameda St,Los Angeles,CA,Los Angeles County,90012,https://www.homelessshelterdirectory.org/cgi-bin/id/shelter.cgi?shelter=15863
107,34.04464,-118.2434,442,S San Pedro St,Los Angeles,CA,Los Angeles County,90013,https://www.homelessshelterdirectory.org/cgi-bin/id/shelter.cgi?shelter=14417
108,34.04351,-118.2431,530,E 5th St,Los Angeles,CA,Los Angeles County,90013,https://www.homelessshelterdirectory.org/cgi-bin/id/shelter.cgi?shelter=10395
109,34.0449,-118.24543,303,E 5th St,Los Angeles,CA,Los Angeles County,90013,https://www.homelessshelterdirectory.org/cgi-bin/id/shelter.cgi?shelter=12684
110,34.04311,-118.24486,545,S San Pedro St,Los Angeles,CA,Los Angeles County,90013,https://www.homelessshelterdirectory.org/cgi-bin/id/shelter.cgi?shelter=10360
111,34.04226,-118.2455,601,S San Pedro St,Los Angeles,CA,Los Angeles County,90014,https://www.homelessshelterdirectory.org/cgi-bin/id/shelter.cgi?shelter=13539
114,34.04652,-118.26411,832,W James M Wood Blvd,Los Angeles,CA,Los Angeles County,90015,https://www.homelessshelterdirectory.org/cgi-bin/id/shelter.cgi?shelter=15575
112,34.03746,-118.317522,2116,Arlington Ave,Los Angeles,CA,Los Angeles County,90018,https://www.homelessshelterdirectory.org/cgi-bin/id/shelter.cgi?shelter=11246
132,34.019913,-118.329164,3701,Cherrywood Ave,Los Angeles,CA,Los Angeles County,90018,https://www.homelessshelterdirectory.org/cgi-bin/id/shelter.cgi?shelter=11661
10,34.0513,-118.44774,1401,S Sepulveda Blvd,Los Angeles,CA,Los Angeles County,90025,https://www.homelessshelterdirectory.org/cgi-bin/id/shelter.cgi?shelter=11248
126,34.096065,-118.311933,5627,Fernwood Ave,Los Angeles,CA,Los Angeles County,90028,https://www.homelessshelterdirectory.org/cgi-bin/id/shelter.cgi?shelter=11710
128,34.101863,-118.319256,5939,Hollywood Blvd,Los Angeles,CA,Los Angeles County,90028,https://www.homelessshelterdirectory.org/cgi-bin/id/shelter.cgi?shelter=9715
101,34.046652,-118.223081,171,S Gless St,Los Angeles,CA,Los Angeles County,90033,https://www.homelessshelterdirectory.org/cgi-bin/id/shelter.cgi?shelter=14420
140,33.979452,-118.322467,6568,5th Ave,Los Angeles,CA,Los Angeles County,90043,https://www.homelessshelterdirectory.org/cgi-bin/id/shelter.cgi?shelter=15873
135,33.96021,-118.28777,823,W Manchester Ave,Los Angeles,CA,Los Angeles County,90044,https://www.homelessshelterdirectory.org/cgi-bin/id/shelter.cgi?shelter=11243
115,34.06197,-118.27094,1920,W 3rd St,Los Angeles,CA,Los Angeles County,90057,https://www.homelessshelterdirectory.org/cgi-bin/id/shelter.cgi?shelter=15864
118,34.06094,-118.27265,357,S Westlake Ave,Los Angeles,CA,Los Angeles County,90057,https://www.homelessshelterdirectory.org/cgi-bin/id/shelter.cgi?shelter=15532
113,34.065185,-118.264669,1650,Rockwood St,Los Angeles,CA,Los Angeles County,90026,https://www.homelessshelterdirectory.org/cgi-bin/id/shelter.cgi?shelter=10210
133,33.92921,-118.23095,2315,E Imperial Hwy,Los Angeles,CA,Los Angeles County,90059,https://www.homelessshelterdirectory.org/cgi-bin/id/shelter.cgi?shelter=15904
9,34.054767,-118.453846,,Wilshire Blvd,Los Angeles,CA,Los Angeles County,90073,https://www.homelessshelterdirectory.org/cgi-bin/id/shelter.cgi?shelter=11241
134,33.927163,-118.228587,11705,Deputy Yamamoto Pl,Lynwood,CA,Los Angeles County,90262,https://www.homelessshelterdirectory.org/cgi-bin/id/shelter.cgi?shelter=11219
338,37.787138,-121.211086,555,Industrial Park Dr,Manteca,CA,San Joaquin County,95337,https://www.homelessshelterdirectory.org/cgi-bin/id/shelter.cgi?shelter=20439
241,36.672544,-121.774959,3087,Wittenmyer Ct,Marina,CA,Monterey County,93933,https://www.homelessshelterdirectory.org/cgi-bin/id/shelter.cgi?shelter=14340
67,37.991661,-122.088867,1815,Arnold Dr,Martinez,CA,Contra Costa County,94553,https://www.homelessshelterdirectory.org/cgi-bin/id/shelter.cgi?shelter=7871
70,38.012661,-122.121016,2244,Pacheco Blvd,Martinez,CA,Contra Costa County,94553,https://www.homelessshelterdirectory.org/cgi-bin/id/shelter.cgi?shelter=7928
75,37.476273,-122.169216,260,Van Buren Rd,Menlo Park,CA,San Mateo County,94025,https://www.homelessshelterdirectory.org/cgi-bin/id/shelter.cgi?shelter=12136
166,33.74242,-117.988003,15161,Jackson St,Midway City,CA,Orange County,92655,https://www.homelessshelterdirectory.org/cgi-bin/id/shelter.cgi?shelter=15267
330,37.633907,-120.993964,320,9th St,Modesto,CA,Stanislaus County,95350,https://www.homelessshelterdirectory.org/cgi-bin/id/shelter.cgi?shelter=13794
329,37.637715,-120.972743,1400,Yosemite Blvd,Modesto,CA,Stanislaus County,95354,https://www.homelessshelterdirectory.org/cgi-bin/id/shelter.cgi?shelter=10530
331,37.638467,-120.987231,201,Jennie St,Modesto,CA,Stanislaus County,95354,https://www.homelessshelterdirectory.org/cgi-bin/id/shelter.cgi?shelter=10532
332,37.639526,-120.993184,618,13th St,Modesto,CA,Stanislaus County,95354,https://www.homelessshelterdirectory.org/cgi-bin/id/shelter.cgi?shelter=10531
333,37.636532,-121.000256,708,H St,Modesto,CA,Stanislaus County,95354,https://www.homelessshelterdirectory.org/cgi-bin/id/shelter.cgi?shelter=7339
334,37.653208,-121.041794,2301,Woodland Ave,Modesto,CA,Stanislaus County,95358,https://www.homelessshelterdirectory.org/cgi-bin/id/shelter.cgi?shelter=12328
237,37.117779,-121.6425,16264,Church St,Morgan Hill,CA,Santa Clara County,95037,https://www.homelessshelterdirectory.org/cgi-bin/id/shelter.cgi?shelter=7348
88,37.380185,-122.066992,813,Alice Ave,Mountain View,CA,Santa Clara County,94041,https://www.homelessshelterdirectory.org/cgi-bin/id/shelter.cgi?shelter=14312
284,38.294642,-122.28696,590,Franklin St,Napa,CA,Napa County,94559,https://www.homelessshelterdirectory.org/cgi-bin/id/shelter.cgi?shelter=14019
283,38.283615,-122.279587,100,Hartle Ct,Napa,CA,Napa County,94559,https://www.homelessshelterdirectory.org/cgi-bin/id/shelter.cgi?shelter=14414
73,37.5341,-122.032309,6330,Thornton Ave,Newark,CA,Alameda County,94560,https://www.homelessshelterdirectory.org/cgi-bin/id/shelter.cgi?shelter=14594
7,34.24755,-118.46542,9733,N Columbus Ave,North Hills,CA,Los Angeles County,91343,https://www.homelessshelterdirectory.org/cgi-bin/id/shelter.cgi?shelter=15124
13,34.213355,-118.388056,7843,Lankershim Blvd,North Hollywood,CA,Los Angeles County,91605,https://www.homelessshelterdirectory.org/cgi-bin/id/shelter.cgi?shelter=14416
4,34.229875,-118.534665,8740,Canby Ave,Northridge,CA,Los Angeles County,91325,https://www.homelessshelterdirectory.org/cgi-bin/id/shelter.cgi?shelter=14529
5,34.230292,-118.534668,8756,Canby Ave,Northridge,CA,Los Angeles County,91325,https://www.homelessshelterdirectory.org/cgi-bin/id/shelter.cgi?shelter=15852
18,37.770622,-122.210436,4700,International Blvd,Oakland,CA,Alameda County,94601,https://www.homelessshelterdirectory.org/cgi-bin/id/shelter.cgi?shelter=7079
19,37.800273,-122.274945,722,Washington St,Oakland,CA,Alameda County,94607,https://www.homelessshelterdirectory.org/cgi-bin/id/shelter.cgi?shelter=10547
312,33.245912,-117.309322,4700,N River Rd N,Oceanside,CA,San Diego County,92057,https://www.homelessshelterdirectory.org/cgi-bin/id/shelter.cgi?shelter=14666
211,34.055491,-117.636297,904,E California St,Ontario,CA,San Bernardino County,91761,https://www.homelessshelterdirectory.org/cgi-bin/id/shelter.cgi?shelter=14597
344,39.491258,-121.551397,4250,Lincoln Blvd,Oroville,CA,Butte County,95966,https://www.homelessshelterdirectory.org/cgi-bin/id/shelter.cgi?shelter=14670
345,39.491258,-121.551397,4250,Lincoln Blvd,Oroville,CA,Butte County,95966,https://www.homelessshelterdirectory.org/cgi-bin/id/shelter.cgi?shelter=14671
308,34.196048,-119.175212,234,E 6th St,Oxnard,CA,Ventura County,93030,https://www.homelessshelterdirectory.org/cgi-bin/id/shelter.cgi?shelter=10490
307,34.203874,-119.175068,150,N Hayes Ave,Oxnard,CA,Ventura County,93030,https://www.homelessshelterdirectory.org/cgi-bin/id/shelter.cgi?shelter=15576
66,37.634959,-122.491781,1809,Palmetto Ave,Pacifica,CA,San Mateo County,94044,https://www.homelessshelterdirectory.org/cgi-bin/id/shelter.cgi?shelter=12145
324,33.722264,-116.381827,73,Alessandro Dr,Palm Desert,CA,Riverside County,92260,https://www.homelessshelterdirectory.org/cgi-bin/id/shelter.cgi?shelter=14361
82,37.439309,-122.160987,33,Encina Ave,Palo Alto,CA,Santa Clara County,94301,https://www.homelessshelterdirectory.org/cgi-bin/id/shelter.cgi?shelter=7862
84,37.427644,-122.138215,2507,Alma St,Palo Alto,CA,Santa Clara County,94301,https://www.homelessshelterdirectory.org/cgi-bin/id/shelter.cgi?shelter=7349
343,39.529884,-121.284373,100,Squaw Flat Rd,Oroville,CA,Butte County,95966,https://www.homelessshelterdirectory.org/cgi-bin/id/shelter.cgi?shelter=15178
100,34.158461,-118.133491,825,E Orange Grove Blvd,Pasadena,CA,Los Angeles County,91104,https://www.homelessshelterdirectory.org/cgi-bin/id/shelter.cgi?shelter=10852
95,34.143125,-118.142477,154,S Euclid Ave,Pasadena,CA,Los Angeles County,91101,https://www.homelessshelterdirectory.org/cgi-bin/id/shelter.cgi?shelter=11226
97,34.148079,-118.145554,235,E Holly St,Pasadena,CA,Los Angeles County,91101,https://www.homelessshelterdirectory.org/cgi-bin/id/shelter.cgi?shelter=11227
99,34.156827,-118.151582,649,N Fair Oaks Ave,Pasadena,CA,Los Angeles County,91103,https://www.homelessshelterdirectory.org/cgi-bin/id/shelter.cgi?shelter=11230
103,34.168943,-118.156544,280,W Washington Blvd,Pasadena,CA,Los Angeles County,91103,https://www.homelessshelterdirectory.org/cgi-bin/id/shelter.cgi?shelter=11638
104,34.16959,-118.152614,1385,El Sereno Ave,Pasadena,CA,Los Angeles County,91103,https://www.homelessshelterdirectory.org/cgi-bin/id/shelter.cgi?shelter=15024
94,34.138665,-118.148193,412,S Raymond Ave,Pasadena,CA,Los Angeles County,91105,https://www.homelessshelterdirectory.org/cgi-bin/id/shelter.cgi?shelter=11225
337,37.465975,-121.128216,405,S 4th St,Patterson,CA,Stanislaus County,95363,https://www.homelessshelterdirectory.org/cgi-bin/id/shelter.cgi?shelter=14097
290,37.256566,-122.378084,620,North St,Pescadero,CA,San Mateo County,94060,https://www.homelessshelterdirectory.org/cgi-bin/id/shelter.cgi?shelter=12146
291,38.226522,-122.619762,1500,Petaluma Blvd S,Petaluma,CA,Sonoma County,94952,https://www.homelessshelterdirectory.org/cgi-bin/id/shelter.cgi?shelter=14424
292,38.233652,-122.623229,900,Hopper St,Petaluma,CA,Sonoma County,94952,https://www.homelessshelterdirectory.org/cgi-bin/id/shelter.cgi?shelter=10282
151,33.880232,-117.868496,907,N Bradford Ave,Placentia,CA,Orange County,92870,https://www.homelessshelterdirectory.org/cgi-bin/id/shelter.cgi?shelter=15264
158,34.077452,-117.752935,1753,N Park Ave,Pomona,CA,Los Angeles County,91768,https://www.homelessshelterdirectory.org/cgi-bin/id/shelter.cgi?shelter=14599
359,36.07979,-119.019147,770,N Main St,Porterville,CA,Tulare County,93257,https://www.homelessshelterdirectory.org/cgi-bin/id/shelter.cgi?shelter=12667
266,38.624408,-121.267252,11223,Trinity River Dr,Rancho Cordova,CA,Sacramento County,95670,https://www.homelessshelterdirectory.org/cgi-bin/id/shelter.cgi?shelter=15489
216,40.186878,-122.211434,440,Antelope Blvd,Red Bluff,CA,Tehama County,96080,https://www.homelessshelterdirectory.org/cgi-bin/id/shelter.cgi?shelter=15154
215,40.570026,-122.38832,2842,S Market St,Redding,CA,Shasta County,96001,https://www.homelessshelterdirectory.org/cgi-bin/id/shelter.cgi?shelter=10435
279,34.061271,-117.168709,940,Stillman Ave,Redlands,CA,San Bernardino County,92374,https://www.homelessshelterdirectory.org/cgi-bin/id/shelter.cgi?shelter=12528
280,34.063864,-117.181094,838,Alta St,Redlands,CA,San Bernardino County,92374,https://www.homelessshelterdirectory.org/cgi-bin/id/shelter.cgi?shelter=13968
74,37.472139,-122.221722,110,Locust St,Redwood City,CA,San Mateo County,94061,https://www.homelessshelterdirectory.org/cgi-bin/id/shelter.cgi?shelter=8029
57,37.933408,-122.348898,165,22nd St,Richmond,CA,Contra Costa County,94801,https://www.homelessshelterdirectory.org/cgi-bin/id/shelter.cgi?shelter=7491
58,37.935546,-122.367435,224,Macdonald Ave,Richmond,CA,Contra Costa County,94801,https://www.homelessshelterdirectory.org/cgi-bin/id/shelter.cgi?shelter=7163
59,37.935431,-122.367276,200,Macdonald Ave,Richmond,CA,Contra Costa County,94801,https://www.homelessshelterdirectory.org/cgi-bin/id/shelter.cgi?shelter=7162
62,37.96531,-122.358991,847,Brookside Dr,Richmond,CA,Contra Costa County,94801,https://www.homelessshelterdirectory.org/cgi-bin/id/shelter.cgi?shelter=8219
54,37.935761,-122.3379,3215,Nevin Ave,Richmond,CA,Contra Costa County,94804,https://www.homelessshelterdirectory.org/cgi-bin/id/shelter.cgi?shelter=7793
370,35.62129,-117.669552,134,S China Lake Blvd,Ridgecrest,CA,Kern County,93555,https://www.homelessshelterdirectory.org/cgi-bin/id/shelter.cgi?shelter=13769
285,33.987246,-117.353627,2840,Hulen Pl,Riverside,CA,Riverside County,92507,https://www.homelessshelterdirectory.org/cgi-bin/id/shelter.cgi?shelter=14875
286,33.982574,-117.362203,2530,3rd St,Riverside,CA,Riverside County,92507,https://www.homelessshelterdirectory.org/cgi-bin/id/shelter.cgi?shelter=11816
357,38.581562,-121.485734,1422,G St,Sacramento,CA,Sacramento County,95814,https://www.homelessshelterdirectory.org/cgi-bin/id/shelter.cgi?shelter=15170
356,38.590042,-121.485697,1200,N B St,Sacramento,CA,Sacramento County,95811,https://www.homelessshelterdirectory.org/cgi-bin/id/shelter.cgi?shelter=14573
358,38.590991,-121.482577,1351,N C St,Sacramento,CA,Sacramento County,95811,https://www.homelessshelterdirectory.org/cgi-bin/id/shelter.cgi?shelter=15828
354,38.595423,-121.497815,400,Bannon St,Sacramento,CA,Sacramento County,95811,https://www.homelessshelterdirectory.org/cgi-bin/id/shelter.cgi?shelter=9973
269,38.599633,-121.431487,1900,Point West Way,Sacramento,CA,Sacramento County,95815,https://www.homelessshelterdirectory.org/cgi-bin/id/shelter.cgi?shelter=9505
270,38.534801,-121.453645,4516,Parker Ave,Sacramento,CA,Sacramento County,95820,https://www.homelessshelterdirectory.org/cgi-bin/id/shelter.cgi?shelter=14572
268,38.617452,-121.384423,3434,Marconi Ave,Sacramento,CA,Sacramento County,95821,https://www.homelessshelterdirectory.org/cgi-bin/id/shelter.cgi?shelter=10056
252,36.678371,-121.652022,43,Soledad St,Salinas,CA,Monterey County,93901,https://www.homelessshelterdirectory.org/cgi-bin/id/shelter.cgi?shelter=15316
226,34.148959,-117.284698,3171,N Sierra Way,San Bernardino,CA,San Bernardino County,92405,https://www.homelessshelterdirectory.org/cgi-bin/id/shelter.cgi?shelter=12919
228,34.135323,-117.287756,2164,N Mountain View Ave,San Bernardino,CA,San Bernardino County,92405,https://www.homelessshelterdirectory.org/cgi-bin/id/shelter.cgi?shelter=11947
229,34.124486,-117.299245,1354,N G St,San Bernardino,CA,San Bernardino County,92405,https://www.homelessshelterdirectory.org/cgi-bin/id/shelter.cgi?shelter=15369
231,34.101875,-117.251926,1595,E Art Townsend Dr,San Bernardino,CA,San Bernardino County,92408,https://www.homelessshelterdirectory.org/cgi-bin/id/shelter.cgi?shelter=14201
232,34.110866,-117.318258,1495,W Victoria St,San Bernardino,CA,San Bernardino County,92411,https://www.homelessshelterdirectory.org/cgi-bin/id/shelter.cgi?shelter=14598
276,33.42435,-117.610298,616,S El Camino Real,San Clemente,CA,Orange County,92672,https://www.homelessshelterdirectory.org/cgi-bin/id/shelter.cgi?shelter=8146
275,33.452122,-117.606198,930,Calle Negocio,San Clemente,CA,Orange County,92673,https://www.homelessshelterdirectory.org/cgi-bin/id/shelter.cgi?shelter=10115
191,32.70822,-117.148394,299,17th St,San Diego,CA,San Diego County,92101,https://www.homelessshelterdirectory.org/cgi-bin/id/shelter.cgi?shelter=11337
192,32.720693,-117.156128,1449,9th Ave,San Diego,CA,San Diego County,92101,https://www.homelessshelterdirectory.org/cgi-bin/id/shelter.cgi?shelter=11332
193,32.705872,-117.149716,1501,Imperial Ave,San Diego,CA,San Diego County,92101,https://www.homelessshelterdirectory.org/cgi-bin/id/shelter.cgi?shelter=11331
195,32.7133,-117.157186,759,8th Ave,San Diego,CA,San Diego County,92101,https://www.homelessshelterdirectory.org/cgi-bin/id/shelter.cgi?shelter=11340
196,32.721796,-117.16147,349,Cedar St,San Diego,CA,San Diego County,92101,https://www.homelessshelterdirectory.org/cgi-bin/id/shelter.cgi?shelter=10886
197,32.724492,-117.163637,120,Elm St,San Diego,CA,San Diego County,92101,https://www.homelessshelterdirectory.org/cgi-bin/id/shelter.cgi?shelter=11329
198,32.724492,-117.163637,120,Elm St,San Diego,CA,San Diego County,92101,https://www.homelessshelterdirectory.org/cgi-bin/id/shelter.cgi?shelter=11330
194,32.705872,-117.149716,1501,Imperial Ave,San Diego,CA,San Diego County,92101,https://www.homelessshelterdirectory.org/cgi-bin/id/shelter.cgi?shelter=9710
186,32.751618,-117.107381,4080,Polk Ave,San Diego,CA,San Diego County,92105,https://www.homelessshelterdirectory.org/cgi-bin/id/shelter.cgi?shelter=14943
187,32.747583,-117.128553,3806,Grim Ave,San Diego,CA,San Diego County,92104,https://www.homelessshelterdirectory.org/cgi-bin/id/shelter.cgi?shelter=11335
188,32.747583,-117.128553,3806,Grim Ave,San Diego,CA,San Diego County,92104,https://www.homelessshelterdirectory.org/cgi-bin/id/shelter.cgi?shelter=11334
189,32.766763,-117.138365,5005,Texas St,San Diego,CA,San Diego County,92108,https://www.homelessshelterdirectory.org/cgi-bin/id/shelter.cgi?shelter=11325
35,37.781455,-122.411801,20,Jones St,San Francisco,CA,San Francisco County,94102,https://www.homelessshelterdirectory.org/cgi-bin/id/shelter.cgi?shelter=7340
36,37.783673,-122.420498,869,Ellis St,San Francisco,CA,San Francisco County,94109,https://www.homelessshelterdirectory.org/cgi-bin/id/shelter.cgi?shelter=10042
38,37.782196,-122.416494,449,Turk St,San Francisco,CA,San Francisco County,94102,https://www.homelessshelterdirectory.org/cgi-bin/id/shelter.cgi?shelter=8110
29,37.77007,-122.407618,1000,Brannan St,San Francisco,CA,San Francisco County,94103,https://www.homelessshelterdirectory.org/cgi-bin/id/shelter.cgi?shelter=15169
30,37.77995,-122.407809,164,6th St,San Francisco,CA,San Francisco County,94103,https://www.homelessshelterdirectory.org/cgi-bin/id/shelter.cgi?shelter=10549
33,37.767687,-122.42169,333,Valencia St,San Francisco,CA,San Francisco County,94103,https://www.homelessshelterdirectory.org/cgi-bin/id/shelter.cgi?shelter=8207
34,37.776917,-122.412297,165,8th St,San Francisco,CA,San Francisco County,94103,https://www.homelessshelterdirectory.org/cgi-bin/id/shelter.cgi?shelter=13275
37,37.77861,-122.415956,37,Grove St,San Francisco,CA,San Francisco County,94102,https://www.homelessshelterdirectory.org/cgi-bin/id/shelter.cgi?shelter=7350
41,37.771147,-122.419191,1663,Mission St,San Francisco,CA,San Francisco County,94103,https://www.homelessshelterdirectory.org/cgi-bin/id/shelter.cgi?shelter=7686
28,37.777612,-122.399845,525,5th St,San Francisco,CA,San Francisco County,94107,https://www.homelessshelterdirectory.org/cgi-bin/id/shelter.cgi?shelter=14936
42,37.787763,-122.417695,1065,Sutter St,San Francisco,CA,San Francisco County,94109,https://www.homelessshelterdirectory.org/cgi-bin/id/shelter.cgi?shelter=7899
43,37.78616,-122.419941,1001,Polk St,San Francisco,CA,San Francisco County,94109,https://www.homelessshelterdirectory.org/cgi-bin/id/shelter.cgi?shelter=14364
39,37.764049,-122.418478,165,Capp St,San Francisco,CA,San Francisco County,94110,https://www.homelessshelterdirectory.org/cgi-bin/id/shelter.cgi?shelter=14938
44,37.756965,-122.423063,899,Guerrero St,San Francisco,CA,San Francisco County,94110,https://www.homelessshelterdirectory.org/cgi-bin/id/shelter.cgi?shelter=7538
46,37.76142,-122.422619,3543,18th St,San Francisco,CA,San Francisco County,94110,https://www.homelessshelterdirectory.org/cgi-bin/id/shelter.cgi?shelter=7140
45,37.774724,-122.444225,536,Central Ave,San Francisco,CA,San Francisco County,94117,https://www.homelessshelterdirectory.org/cgi-bin/id/shelter.cgi?shelter=7390
27,37.735809,-122.389619,1601,McKinnon Ave,San Francisco,CA,San Francisco County,94124,https://www.homelessshelterdirectory.org/cgi-bin/id/shelter.cgi?shelter=15168
31,37.721147,-122.401252,3230,San Bruno Ave,San Francisco,CA,San Francisco County,94134,https://www.homelessshelterdirectory.org/cgi-bin/id/shelter.cgi?shelter=10269
93,34.103751,-118.085848,1005,E Las Tunas Dr,San Gabriel,CA,Los Angeles County,91776,https://www.homelessshelterdirectory.org/cgi-bin/id/shelter.cgi?shelter=15460
238,37.087753,-121.612502,13535,Monterey Rd,San Martin,CA,Santa Clara County,95046,https://www.homelessshelterdirectory.org/cgi-bin/id/shelter.cgi?shelter=7414
243,37.316527,-121.874639,1381,S 1st St,San Jose,CA,Santa Clara County,95110,https://www.homelessshelterdirectory.org/cgi-bin/id/shelter.cgi?shelter=7939
245,37.336828,-121.904277,358,N Montgomery St,San Jose,CA,Santa Clara County,95110,https://www.homelessshelterdirectory.org/cgi-bin/id/shelter.cgi?shelter=7643
246,37.336828,-121.904277,358,N Montgomery St,San Jose,CA,Santa Clara County,95110,https://www.homelessshelterdirectory.org/cgi-bin/id/shelter.cgi?shelter=14415
90,37.365087,-121.89578,1297,N 13th St,San Jose,CA,Santa Clara County,95112,https://www.homelessshelterdirectory.org/cgi-bin/id/shelter.cgi?shelter=7314
91,37.364702,-121.89597,1174,Old Bayshore Hwy,San Jose,CA,Santa Clara County,95112,https://www.homelessshelterdirectory.org/cgi-bin/id/shelter.cgi?shelter=14669
244,37.331892,-121.88116,420,S 5th St,San Jose,CA,Santa Clara County,95112,https://www.homelessshelterdirectory.org/cgi-bin/id/shelter.cgi?shelter=11349
247,37.344227,-121.894144,435,N 3rd St,San Jose,CA,Santa Clara County,95112,https://www.homelessshelterdirectory.org/cgi-bin/id/shelter.cgi?shelter=10546
249,37.343653,-121.888498,318,N 6th St,San Jose,CA,Santa Clara County,95112,https://www.homelessshelterdirectory.org/cgi-bin/id/shelter.cgi?shelter=7238
250,37.34403,-121.892668,405,N 4th St,San Jose,CA,Santa Clara County,95112,https://www.homelessshelterdirectory.org/cgi-bin/id/shelter.cgi?shelter=7953
254,37.359821,-121.904597,1181,N 4th St,San Jose,CA,Santa Clara County,95112,https://www.homelessshelterdirectory.org/cgi-bin/id/shelter.cgi?shelter=7810
255,37.359965,-121.900748,260,Commercial St,San Jose,CA,Santa Clara County,95112,https://www.homelessshelterdirectory.org/cgi-bin/id/shelter.cgi?shelter=7644
240,37.273307,-121.880252,3180,Newberry Dr,San Jose,CA,Santa Clara County,95118,https://www.homelessshelterdirectory.org/cgi-bin/id/shelter.cgi?shelter=15769
248,37.303195,-121.871055,2011,Little Orchard St,San Jose,CA,Santa Clara County,95125,https://www.homelessshelterdirectory.org/cgi-bin/id/shelter.cgi?shelter=7413
242,37.316258,-121.935426,,Moorpark Ave,San Jose,CA,Santa Clara County,95128,https://www.homelessshelterdirectory.org/cgi-bin/id/shelter.cgi?shelter=7139
89,37.3839,-121.918191,2304,Zanker Rd,San Jose,CA,Santa Clara County,95131,https://www.homelessshelterdirectory.org/cgi-bin/id/shelter.cgi?shelter=10545
92,37.366361,-121.868319,692,N King Rd,San Jose,CA,Santa Clara County,95133,https://www.homelessshelterdirectory.org/cgi-bin/id/shelter.cgi?shelter=8005
23,37.726363,-122.147886,1395,Bancroft Ave,San Leandro,CA,Alameda County,94577,https://www.homelessshelterdirectory.org/cgi-bin/id/shelter.cgi?shelter=8006
260,35.256043,-120.672077,40,Prado Rd,San Luis Obispo,CA,San Luis Obispo County,93401,https://www.homelessshelterdirectory.org/cgi-bin/id/shelter.cgi?shelter=15826
61,37.575518,-122.335484,325,Villa Ter,San Mateo,CA,San Mateo County,94401,https://www.homelessshelterdirectory.org/cgi-bin/id/shelter.cgi?shelter=8030
65,37.568398,-122.325038,50,N B St,San Mateo,CA,San Mateo County,94401,https://www.homelessshelterdirectory.org/cgi-bin/id/shelter.cgi?shelter=20420
167,33.73589,-118.2821,235,W 9th St,San Pedro,CA,Los Angeles County,90731,https://www.homelessshelterdirectory.org/cgi-bin/id/shelter.cgi?shelter=10192
168,33.73543,-118.28339,936,S Centre St,San Pedro,CA,Los Angeles County,90731,https://www.homelessshelterdirectory.org/cgi-bin/id/shelter.cgi?shelter=14418
170,33.73132,-118.29221,1400,S Gaffey St,San Pedro,CA,Los Angeles County,90731,https://www.homelessshelterdirectory.org/cgi-bin/id/shelter.cgi?shelter=11233
77,37.971714,-122.529533,822,B St,San Rafael,CA,Marin County,94901,https://www.homelessshelterdirectory.org/cgi-bin/id/shelter.cgi?shelter=14016
176,33.746891,-117.859463,818,E 3rd St,Santa Ana,CA,Orange County,92701,https://www.homelessshelterdirectory.org/cgi-bin/id/shelter.cgi?shelter=13790
177,33.742813,-117.866744,316,S Cypress Ave,Santa Ana,CA,Orange County,92701,https://www.homelessshelterdirectory.org/cgi-bin/id/shelter.cgi?shelter=15272
173,33.760245,-117.846949,1505,E 17th St,Santa Ana,CA,Orange County,92705,https://www.homelessshelterdirectory.org/cgi-bin/id/shelter.cgi?shelter=15268
174,33.760245,-117.846949,1505,E 17th St,Santa Ana,CA,Orange County,92705,https://www.homelessshelterdirectory.org/cgi-bin/id/shelter.cgi?shelter=15777
172,33.757167,-117.86906,1411,N Broadway,Santa Ana,CA,Orange County,92706,https://www.homelessshelterdirectory.org/cgi-bin/id/shelter.cgi?shelter=15261
178,33.715082,-117.862104,612,E Warner Ave,Santa Ana,CA,Orange County,92707,https://www.homelessshelterdirectory.org/cgi-bin/id/shelter.cgi?shelter=15270
320,34.422344,-119.692135,425,E Cota St,Santa Barbara,CA,Santa Barbara County,93101,https://www.homelessshelterdirectory.org/cgi-bin/id/shelter.cgi?shelter=8157
321,34.414877,-119.695678,423,Chapala St,Santa Barbara,CA,Santa Barbara County,93101,https://www.homelessshelterdirectory.org/cgi-bin/id/shelter.cgi?shelter=13789
317,34.418905,-119.676574,816,Cacique St,Santa Barbara,CA,Santa Barbara County,93103,https://www.homelessshelterdirectory.org/cgi-bin/id/shelter.cgi?shelter=13388
318,34.418905,-119.676574,816,Cacique St,Santa Barbara,CA,Santa Barbara County,93103,https://www.homelessshelterdirectory.org/cgi-bin/id/shelter.cgi?shelter=14583
319,34.419223,-119.684404,535,E Yanonali St,Santa Barbara,CA,Santa Barbara County,93103,https://www.homelessshelterdirectory.org/cgi-bin/id/shelter.cgi?shelter=14582
14,34.41123,-118.540487,23031,Drayton St,Santa Clarita,CA,Los Angeles County,91350,https://www.homelessshelterdirectory.org/cgi-bin/id/shelter.cgi?shelter=14732
233,36.984846,-122.030474,115,Coral St,Santa Cruz,CA,Santa Cruz County,95060,https://www.homelessshelterdirectory.org/cgi-bin/id/shelter.cgi?shelter=7602
261,34.964246,-120.433526,1207,N McClelland St,Santa Maria,CA,Santa Barbara County,93454,https://www.homelessshelterdirectory.org/cgi-bin/id/shelter.cgi?shelter=11373
262,34.943892,-120.441023,401,W Morrison Ave,Santa Maria,CA,Santa Barbara County,93458,https://www.homelessshelterdirectory.org/cgi-bin/id/shelter.cgi?shelter=14581
8,34.013654,-118.489091,505,Olympic Blvd,Santa Monica,CA,Los Angeles County,90401,https://www.homelessshelterdirectory.org/cgi-bin/id/shelter.cgi?shelter=14419
6,34.032125,-118.482017,2118,Wilshire Blvd,Santa Monica,CA,Los Angeles County,90403,https://www.homelessshelterdirectory.org/cgi-bin/id/shelter.cgi?shelter=15008
15,34.354233,-119.061046,113,N Mill St,Santa Paula,CA,Ventura County,93060,https://www.homelessshelterdirectory.org/cgi-bin/id/shelter.cgi?shelter=15569
294,38.438998,-122.721541,101,6th St,Santa Rosa,CA,Sonoma County,95401,https://www.homelessshelterdirectory.org/cgi-bin/id/shelter.cgi?shelter=10782
295,38.440732,-122.719603,600,Morgan St,Santa Rosa,CA,Sonoma County,95401,https://www.homelessshelterdirectory.org/cgi-bin/id/shelter.cgi?shelter=10780
296,38.440976,-122.719124,465,A St,Santa Rosa,CA,Sonoma County,95401,https://www.homelessshelterdirectory.org/cgi-bin/id/shelter.cgi?shelter=15979
298,38.475598,-122.737462,3440,Airway Dr,Santa Rosa,CA,Sonoma County,95403,https://www.homelessshelterdirectory.org/cgi-bin/id/shelter.cgi?shelter=14017
301,38.438998,-122.721541,101,6th St,Santa Rosa,CA,Sonoma County,95401,https://www.homelessshelterdirectory.org/cgi-bin/id/shelter.cgi?shelter=10281
293,38.447286,-122.726868,1207,Cleveland Ave,Santa Rosa,CA,Sonoma County,95401,https://www.homelessshelterdirectory.org/cgi-bin/id/shelter.cgi?shelter=14015
297,38.427832,-122.70928,634,Pressley St,Santa Rosa,CA,Sonoma County,95404,https://www.homelessshelterdirectory.org/cgi-bin/id/shelter.cgi?shelter=10781
302,38.434222,-122.691591,2455,Bennett Valley Rd,Santa Rosa,CA,Sonoma County,95404,https://www.homelessshelterdirectory.org/cgi-bin/id/shelter.cgi?shelter=15980
185,32.854809,-116.9929,9715,Halberns Blvd,Santee,CA,San Diego County,92071,https://www.homelessshelterdirectory.org/cgi-bin/id/shelter.cgi?shelter=20428
51,37.639033,-122.394187,295,N Access Rd,South San Francisco,CA,San Mateo County,94080,https://www.homelessshelterdirectory.org/cgi-bin/id/shelter.cgi?shelter=15496
153,33.803155,-117.995696,7855,Katella Ave,Stanton,CA,Orange County,90680,https://www.homelessshelterdirectory.org/cgi-bin/id/shelter.cgi?shelter=15394
339,37.947028,-121.297895,411,S Harrison St,Stockton,CA,San Joaquin County,95203,https://www.homelessshelterdirectory.org/cgi-bin/id/shelter.cgi?shelter=14093
16,34.218661,-118.368673,8165,San Fernando Rd,Sun Valley,CA,Los Angeles County,91352,https://www.homelessshelterdirectory.org/cgi-bin/id/shelter.cgi?shelter=14713
12,34.310645,-118.432993,13770,Sayre St,Sylmar,CA,Los Angeles County,91342,https://www.homelessshelterdirectory.org/cgi-bin/id/shelter.cgi?shelter=15725
289,33.510726,-117.140305,42036,Moraga Rd,Temecula,CA,Riverside County,92591,https://www.homelessshelterdirectory.org/cgi-bin/id/shelter.cgi?shelter=15361
288,33.528618,-117.15935,40810,County Center Dr,Temecula,CA,Riverside County,92591,https://www.homelessshelterdirectory.org/cgi-bin/id/shelter.cgi?shelter=20324
224,37.748553,-121.426512,26,W Emerson Ave,Tracy,CA,San Joaquin County,95376,https://www.homelessshelterdirectory.org/cgi-bin/id/shelter.cgi?shelter=13105
363,36.206118,-119.348984,111,W Kern Ave,Tulare,CA,Tulare County,93274,https://www.homelessshelterdirectory.org/cgi-bin/id/shelter.cgi?shelter=13772
336,37.492427,-120.840683,1030,East Ave,Turlock,CA,Stanislaus County,95380,https://www.homelessshelterdirectory.org/cgi-bin/id/shelter.cgi?shelter=14063
179,33.745469,-117.830637,,W 1st St,Tustin,CA,Orange County,92780,https://www.homelessshelterdirectory.org/cgi-bin/id/shelter.cgi?shelter=9936
180,33.704136,-117.841195,2345,Barranca Pkwy,Tustin,CA,Orange County,92782,https://www.homelessshelterdirectory.org/cgi-bin/id/shelter.cgi?shelter=15727
213,34.096378,-117.679776,1501,W 9th St,Upland,CA,San Bernardino County,91786,https://www.homelessshelterdirectory.org/cgi-bin/id/shelter.cgi?shelter=11247
225,38.36605,-121.976479,267,Bennett Hill Ct,Vacaville,CA,Solano County,95688,https://www.homelessshelterdirectory.org/cgi-bin/id/shelter.cgi?shelter=14243
85,38.118877,-122.25911,2166,Sacramento St,Vallejo,CA,Solano County,94590,https://www.homelessshelterdirectory.org/cgi-bin/id/shelter.cgi?shelter=15314
11,33.998086,-118.478322,204,Hampton Dr,Venice,CA,Los Angeles County,90291,https://www.homelessshelterdirectory.org/cgi-bin/id/shelter.cgi?shelter=11235
309,34.278035,-119.29251,536,E Thompson Blvd,Ventura,CA,Ventura County,93001,https://www.homelessshelterdirectory.org/cgi-bin/id/shelter.cgi?shelter=10489
310,34.278803,-119.29503,155,S Oak St,Ventura,CA,Ventura County,93001,https://www.homelessshelterdirectory.org/cgi-bin/id/shelter.cgi?shelter=13791
311,34.294293,-119.296173,43,E Vince St,Ventura,CA,Ventura County,93001,https://www.homelessshelterdirectory.org/cgi-bin/id/shelter.cgi?shelter=12957
2,34.482408,-117.351662,12759,Petaluma Rd,Victorville,CA,San Bernardino County,92392,https://www.homelessshelterdirectory.org/cgi-bin/id/shelter.cgi?shelter=14023
3,34.563438,-117.314616,16949,D St,Victorville,CA,San Bernardino County,92395,https://www.homelessshelterdirectory.org/cgi-bin/id/shelter.cgi?shelter=9472
1,34.538723,-117.317815,15846,Cazadero Rd,Victorville,CA,San Bernardino County,92394,https://www.homelessshelterdirectory.org/cgi-bin/id/shelter.cgi?shelter=14621
360,36.335806,-119.2873,500,E Race Ave,Visalia,CA,Tulare County,93292,https://www.homelessshelterdirectory.org/cgi-bin/id/shelter.cgi?shelter=13771
314,33.209612,-117.233404,859,E Vista Way,Vista,CA,San Diego County,92084,https://www.homelessshelterdirectory.org/cgi-bin/id/shelter.cgi?shelter=14045
64,37.894554,-122.062579,1271,S California Blvd,Walnut Creek,CA,Contra Costa County,94596,https://www.homelessshelterdirectory.org/cgi-bin/id/shelter.cgi?shelter=15555
234,36.914655,-121.759278,115,Brennan St,Watsonville,CA,Santa Cruz County,95076,https://www.homelessshelterdirectory.org/cgi-bin/id/shelter.cgi?shelter=7860
235,36.90925,-121.75396,214,Union St,Watsonville,CA,Santa Cruz County,95076,https://www.homelessshelterdirectory.org/cgi-bin/id/shelter.cgi?shelter=11814
236,36.897235,-121.740551,111,Railroad Ave,Royal Oaks,CA,Monterey County,95076,https://www.homelessshelterdirectory.org/cgi-bin/id/shelter.cgi?shelter=7859
136,33.93574,-118.25399,10950,S Central Ave,Los Angeles,CA,Los Angeles County,90059,https://www.homelessshelterdirectory.org/cgi-bin/id/shelter.cgi?shelter=11238
160,33.776638,-118.261031,529,Broad Ave,Wilmington,CA,Los Angeles County,90744,https://www.homelessshelterdirectory.org/cgi-bin/id/shelter.cgi?shelter=13710
161,33.776507,-118.261019,525,Broad Ave,Wilmington,CA,Los Angeles County,90744,https://www.homelessshelterdirectory.org/cgi-bin/id/shelter.cgi?shelter=13709
380,41.730717,-122.640015,417,Lane St,Yreka,CA,Siskiyou County,96097,https://www.homelessshelterdirectory.org/cgi-bin/id/shelter.cgi?shelter=10294
364,39.135474,-121.628217,909,Spiva Ave,Yuba City,CA,Sutter County,95991,https://www.homelessshelterdirectory.org/cgi-bin/id/shelter.cgi?shelter=15877
59,38.892763,-90.183858,114,E 5th St,Alton,IL,Madison County,62002,https://www.homelessshelterdirectory.org/cgi-bin/id/shelter.cgi?shelter=14113
60,38.889513,-90.185364,111,Market St,Alton,IL,Madison County,62002,https://www.homelessshelterdirectory.org/cgi-bin/id/shelter.cgi?shelter=15284
36,41.75722,-88.31077,215,E New York St,Aurora,IL,Kane County,60505,https://www.homelessshelterdirectory.org/cgi-bin/id/shelter.cgi?shelter=8213
38,41.746447,-88.330761,659,S River St,Aurora,IL,Kane County,60506,https://www.homelessshelterdirectory.org/cgi-bin/id/shelter.cgi?shelter=10384
97,40.480109,-88.998961,208,N Oak St,Bloomington,IL,McLean County,61701,https://www.homelessshelterdirectory.org/cgi-bin/id/shelter.cgi?shelter=15340
95,40.473061,-88.990137,303,E Oakland Ave,Bloomington,IL,McLean County,61701,https://www.homelessshelterdirectory.org/cgi-bin/id/shelter.cgi?shelter=7592
96,40.479735,-88.999282,611,W Washington St,Bloomington,IL,McLean County,61701,https://www.homelessshelterdirectory.org/cgi-bin/id/shelter.cgi?shelter=15232
42,41.664376,-87.667166,12610,S Honore St,Calumet Park,IL,Cook County,60827,https://www.homelessshelterdirectory.org/cgi-bin/id/shelter.cgi?shelter=15762
114,40.560611,-90.015356,1330,E Ash St,Canton,IL,Fulton County,61520,https://www.homelessshelterdirectory.org/cgi-bin/id/shelter.cgi?shelter=15946
79,37.720068,-89.212631,701,S Marion St,Carbondale,IL,Jackson County,62901,https://www.homelessshelterdirectory.org/cgi-bin/id/shelter.cgi?shelter=10071
120,40.118587,-88.231631,504,E Church St,Champaign,IL,Champaign County,61820,https://www.homelessshelterdirectory.org/cgi-bin/id/shelter.cgi?shelter=15940
118,40.120204,-88.239486,70,E Washington St,Champaign,IL,Champaign County,61820,https://www.homelessshelterdirectory.org/cgi-bin/id/shelter.cgi?shelter=7750
121,40.141388,-88.23805,2212,N Market St,Champaign,IL,Champaign County,61822,https://www.homelessshelterdirectory.org/cgi-bin/id/shelter.cgi?shelter=15942
50,41.505864,-87.659747,414,W Lincoln Hwy,Chicago Heights,IL,Cook County,60411,https://www.homelessshelterdirectory.org/cgi-bin/id/shelter.cgi?shelter=9645
51,41.504775,-87.634863,1439,Emerald Ave,Chicago Heights,IL,Cook County,60411,https://www.homelessshelterdirectory.org/cgi-bin/id/shelter.cgi?shelter=7918
35,41.877341,-87.624771,332,S Michigan Ave,Chicago,IL,Cook County,60604,https://www.homelessshelterdirectory.org/cgi-bin/id/shelter.cgi?shelter=15015
32,41.862127,-87.639862,1458,S Canal St,Chicago,IL,Cook County,60607,https://www.homelessshelterdirectory.org/cgi-bin/id/shelter.cgi?shelter=7858
20,41.867507,-87.695166,2750,W Roosevelt Rd,Chicago,IL,Cook County,60608,https://www.homelessshelterdirectory.org/cgi-bin/id/shelter.cgi?shelter=9623
34,41.80167,-87.662551,5052,S Laflin St,Chicago,IL,Cook County,60609,https://www.homelessshelterdirectory.org/cgi-bin/id/shelter.cgi?shelter=11672
16,41.877663,-87.697118,2822,W Jackson Blvd,Chicago,IL,Cook County,60612,https://www.homelessshelterdirectory.org/cgi-bin/id/shelter.cgi?shelter=7381
19,41.873557,-87.694244,2715,W Harrison St,Chicago,IL,Cook County,60612,https://www.homelessshelterdirectory.org/cgi-bin/id/shelter.cgi?shelter=10274
27,41.955043,-87.65041,4009,N Broadway St,Chicago,IL,Cook County,60613,https://www.homelessshelterdirectory.org/cgi-bin/id/shelter.cgi?shelter=15250
31,41.925381,-87.643926,600,W Fullerton Pkwy,Chicago,IL,Cook County,60614,https://www.homelessshelterdirectory.org/cgi-bin/id/shelter.cgi?shelter=9697
48,41.722091,-87.550759,9519,S Commercial Ave,Chicago,IL,Cook County,60617,https://www.homelessshelterdirectory.org/cgi-bin/id/shelter.cgi?shelter=15236
39,41.761065,-87.631255,7320,S Yale Ave,Chicago,IL,Cook County,60621,https://www.homelessshelterdirectory.org/cgi-bin/id/shelter.cgi?shelter=20380
40,41.761065,-87.631255,7320,S Yale Ave,Chicago,IL,Cook County,60621,https://www.homelessshelterdirectory.org/cgi-bin/id/shelter.cgi?shelter=20311
23,41.901824,-87.662836,1110,N Noble St,Chicago,IL,Cook County,60642,https://www.homelessshelterdirectory.org/cgi-bin/id/shelter.cgi?shelter=12577
8,41.881599,-87.73215,4241,W Washington Blvd,Chicago,IL,Cook County,60624,https://www.homelessshelterdirectory.org/cgi-bin/id/shelter.cgi?shelter=10538
10,41.889846,-87.712985,3465,W Franklin Blvd,Chicago,IL,Cook County,60624,https://www.homelessshelterdirectory.org/cgi-bin/id/shelter.cgi?shelter=7652
43,41.696398,-87.621172,10858,S Michigan Ave,Chicago,IL,Cook County,60628,https://www.homelessshelterdirectory.org/cgi-bin/id/shelter.cgi?shelter=14730
44,41.688259,-87.627527,11321,S Wentworth Ave,Chicago,IL,Cook County,60628,https://www.homelessshelterdirectory.org/cgi-bin/id/shelter.cgi?shelter=12181
45,41.686904,-87.622388,33,E 114th St,Chicago,IL,Cook County,60628,https://www.homelessshelterdirectory.org/cgi-bin/id/shelter.cgi?shelter=13431
21,41.96195,-87.674885,4410,N Ravenswood Ave,Chicago,IL,Cook County,60640,https://www.homelessshelterdirectory.org/cgi-bin/id/shelter.cgi?shelter=14427
24,41.966653,-87.658989,4628,N Clifton Ave,Chicago,IL,Cook County,60640,https://www.homelessshelterdirectory.org/cgi-bin/id/shelter.cgi?shelter=9627
26,41.970458,-87.655003,4838,N Sheridan Rd,Chicago,IL,Cook County,60640,https://www.homelessshelterdirectory.org/cgi-bin/id/shelter.cgi?shelter=14642
49,41.777977,-87.595547,6423,S Woodlawn Ave,Chicago,IL,Cook County,60637,https://www.homelessshelterdirectory.org/cgi-bin/id/shelter.cgi?shelter=8073
9,41.909713,-87.715751,3533,W North Ave,Chicago,IL,Cook County,60647,https://www.homelessshelterdirectory.org/cgi-bin/id/shelter.cgi?shelter=14910
7,41.897114,-87.769994,915,N Menard Ave,Chicago,IL,Cook County,60651,https://www.homelessshelterdirectory.org/cgi-bin/id/shelter.cgi?shelter=15800
11,41.897905,-87.710265,924,N Christiana Ave,Chicago,IL,Cook County,60651,https://www.homelessshelterdirectory.org/cgi-bin/id/shelter.cgi?shelter=20319
12,41.897418,-87.709674,825,N Christiana Ave,Chicago,IL,Cook County,60651,https://www.homelessshelterdirectory.org/cgi-bin/id/shelter.cgi?shelter=20320
13,41.906018,-87.696511,1343,N California Ave,Chicago,IL,Cook County,60622,https://www.homelessshelterdirectory.org/cgi-bin/id/shelter.cgi?shelter=12408
126,40.137984,-87.611909,834,N Bowman Ave,Danville,IL,Vermilion County,61832,https://www.homelessshelterdirectory.org/cgi-bin/id/shelter.cgi?shelter=15040
125,40.137984,-87.611909,834,N Bowman Ave,Danville,IL,Vermilion County,61832,https://www.homelessshelterdirectory.org/cgi-bin/id/shelter.cgi?shelter=7377
131,39.814512,-88.953478,2225,S Franklin Street Rd,Decatur,IL,Macon County,62521,https://www.homelessshelterdirectory.org/cgi-bin/id/shelter.cgi?shelter=11858
128,39.85033,-88.959367,929,N Union St,Decatur,IL,Macon County,62522,https://www.homelessshelterdirectory.org/cgi-bin/id/shelter.cgi?shelter=11856
129,39.846669,-88.958338,243,W Cerro Gordo St,Decatur,IL,Macon County,62522,https://www.homelessshelterdirectory.org/cgi-bin/id/shelter.cgi?shelter=11854
130,39.841156,-88.957904,229,W Main St,Decatur,IL,Macon County,62523,https://www.homelessshelterdirectory.org/cgi-bin/id/shelter.cgi?shelter=11859
127,39.848455,-88.954298,758,N Water St,Decatur,IL,Macon County,62523,https://www.homelessshelterdirectory.org/cgi-bin/id/shelter.cgi?shelter=11860
75,38.628458,-90.11118,1410,N 37th St,East Saint Louis,IL,St. Clair County,62204,https://www.homelessshelterdirectory.org/cgi-bin/id/shelter.cgi?shelter=7257
76,38.613404,-90.128142,510,N 25th St,East Saint Louis,IL,St. Clair County,62205,https://www.homelessshelterdirectory.org/cgi-bin/id/shelter.cgi?shelter=9525
14,42.044971,-88.273249,453,Fremont St,Elgin,IL,Kane County,60120,https://www.homelessshelterdirectory.org/cgi-bin/id/shelter.cgi?shelter=15686
22,42.023163,-88.318875,1730,Berkley St,Elgin,IL,Kane County,60123,https://www.homelessshelterdirectory.org/cgi-bin/id/shelter.cgi?shelter=15540
111,40.711998,-89.268773,300,Reagan Dr,Eureka,IL,Woodford County,61530,https://www.homelessshelterdirectory.org/cgi-bin/id/shelter.cgi?shelter=13233
25,42.048966,-87.689152,1215,Church St,Evanston,IL,Cook County,60201,https://www.homelessshelterdirectory.org/cgi-bin/id/shelter.cgi?shelter=14935
29,42.044635,-87.680844,1458,Chicago Ave,Evanston,IL,Cook County,60201,https://www.homelessshelterdirectory.org/cgi-bin/id/shelter.cgi?shelter=7354
30,42.044635,-87.680844,1458,Chicago Ave,Evanston,IL,Cook County,60201,https://www.homelessshelterdirectory.org/cgi-bin/id/shelter.cgi?shelter=7581
139,42.293808,-89.616836,514,S Chicago Ave,Freeport,IL,Stephenson County,61032,https://www.homelessshelterdirectory.org/cgi-bin/id/shelter.cgi?shelter=7481
117,40.936767,-90.364094,435,E 3rd St,Galesburg,IL,Knox County,61401,https://www.homelessshelterdirectory.org/cgi-bin/id/shelter.cgi?shelter=7492
62,38.700023,-90.152789,1825,Delmar Ave,Granite City,IL,Madison County,62040,https://www.homelessshelterdirectory.org/cgi-bin/id/shelter.cgi?shelter=14112
110,37.740698,-88.541806,,N Jackson St,Harrisburg,IL,Saline County,62946,https://www.homelessshelterdirectory.org/cgi-bin/id/shelter.cgi?shelter=15947
99,39.734311,-90.235011,100,S Fayette St,Jacksonville,IL,Morgan County,62650,https://www.homelessshelterdirectory.org/cgi-bin/id/shelter.cgi?shelter=14137
53,41.528219,-88.06484,611,E Cass St,Joliet,IL,Will County,60432,https://www.homelessshelterdirectory.org/cgi-bin/id/shelter.cgi?shelter=12303
54,41.523907,-88.071857,364,E Washington St,Joliet,IL,Will County,60433,https://www.homelessshelterdirectory.org/cgi-bin/id/shelter.cgi?shelter=15943
55,41.524016,-88.072616,350,E Washington St,Joliet,IL,Will County,60433,https://www.homelessshelterdirectory.org/cgi-bin/id/shelter.cgi?shelter=7780
46,41.550943,-88.1221,1550,Plainfield Rd,Joliet,IL,Will County,60435,https://www.homelessshelterdirectory.org/cgi-bin/id/shelter.cgi?shelter=9504
112,41.128347,-87.872518,660,N 5th Ave,Kankakee,IL,Kankakee County,60901,https://www.homelessshelterdirectory.org/cgi-bin/id/shelter.cgi?shelter=20361
5,41.820404,-87.898426,,Ogden Ave,Western Springs,IL,Cook County,60558,https://www.homelessshelterdirectory.org/cgi-bin/id/shelter.cgi?shelter=13385
153,40.441048,-90.672383,1306,Maple Ave,Macomb,IL,McDonough County,61455,https://www.homelessshelterdirectory.org/cgi-bin/id/shelter.cgi?shelter=14805
81,37.733193,-88.926568,103,E Calvert St,Marion,IL,Williamson County,62959,https://www.homelessshelterdirectory.org/cgi-bin/id/shelter.cgi?shelter=7738
94,39.483375,-88.377332,1812,Western Ave,Mattoon,IL,Coles County,61938,https://www.homelessshelterdirectory.org/cgi-bin/id/shelter.cgi?shelter=15790
3,41.870093,-87.842625,1851,S 9th Ave,Maywood,IL,Cook County,60153,https://www.homelessshelterdirectory.org/cgi-bin/id/shelter.cgi?shelter=14739
47,42.317798,-88.27574,,S State Rte 31,McHenry,IL,McHenry County,60050,https://www.homelessshelterdirectory.org/cgi-bin/id/shelter.cgi?shelter=15055
148,38.407491,-87.762078,217,W 3rd St,Mount Carmel,IL,Wabash County,62863,https://www.homelessshelterdirectory.org/cgi-bin/id/shelter.cgi?shelter=13779
109,38.319625,-88.911283,1717,Jefferson Ave,Mount Vernon,IL,Jefferson County,62864,https://www.homelessshelterdirectory.org/cgi-bin/id/shelter.cgi?shelter=15227
158,41.351228,-88.845786,1120,Canal St,Ottawa,IL,Lasalle County,61350,https://www.homelessshelterdirectory.org/cgi-bin/id/shelter.cgi?shelter=9954
6,42.098885,-88.015074,1140,E Northwest Hwy,Arlington Heights,IL,Cook County,60004,https://www.homelessshelterdirectory.org/cgi-bin/id/shelter.cgi?shelter=14729
4,42.032822,-87.865188,1440,Renaissance Dr,Park Ridge,IL,Cook County,60068,https://www.homelessshelterdirectory.org/cgi-bin/id/shelter.cgi?shelter=10248
115,40.556798,-89.655938,235,Derby St,Pekin,IL,Tazewell County,61554,https://www.homelessshelterdirectory.org/cgi-bin/id/shelter.cgi?shelter=14354
123,40.697682,-89.592531,714,Hamilton Blvd,Peoria,IL,Peoria County,61603,https://www.homelessshelterdirectory.org/cgi-bin/id/shelter.cgi?shelter=15741
116,40.675638,-89.643493,1127,S Laramie St,Peoria,IL,Peoria County,61605,https://www.homelessshelterdirectory.org/cgi-bin/id/shelter.cgi?shelter=13624
124,40.687178,-89.597082,601,State Rte 29,Peoria,IL,Peoria County,61602,https://www.homelessshelterdirectory.org/cgi-bin/id/shelter.cgi?shelter=7870
162,39.936008,-91.408131,501,Broadway St,Quincy,IL,Adams County,62301,https://www.homelessshelterdirectory.org/cgi-bin/id/shelter.cgi?shelter=13792
133,41.510056,-90.56903,2209,3rd Ave,Rock Island,IL,Rock Island County,61201,https://www.homelessshelterdirectory.org/cgi-bin/id/shelter.cgi?shelter=7288
104,42.274066,-89.100007,715,W State St,Rockford,IL,Winnebago County,61102,https://www.homelessshelterdirectory.org/cgi-bin/id/shelter.cgi?shelter=14585
105,42.270599,-89.103712,809,Cedar St,Rockford,IL,Winnebago County,61102,https://www.homelessshelterdirectory.org/cgi-bin/id/shelter.cgi?shelter=7119
103,42.275192,-89.094112,412,N Church St,Rockford,IL,Winnebago County,61103,https://www.homelessshelterdirectory.org/cgi-bin/id/shelter.cgi?shelter=8028
101,42.258967,-89.079302,1149,Railroad Ave,Rockford,IL,Winnebago County,61104,https://www.homelessshelterdirectory.org/cgi-bin/id/shelter.cgi?shelter=12859
102,42.261348,-89.086554,620,Kishwaukee St,Rockford,IL,Winnebago County,61104,https://www.homelessshelterdirectory.org/cgi-bin/id/shelter.cgi?shelter=8162
17,41.91254,-88.316279,214,Walnut St,Saint Charles,IL,Kane County,60174,https://www.homelessshelterdirectory.org/cgi-bin/id/shelter.cgi?shelter=15402
151,39.800302,-89.640824,1100,E Adams St,Springfield,IL,Sangamon County,62703,https://www.homelessshelterdirectory.org/cgi-bin/id/shelter.cgi?shelter=10128
132,41.815672,-89.695341,111,E 29th St,Sterling,IL,Whiteside County,61081,https://www.homelessshelterdirectory.org/cgi-bin/id/shelter.cgi?shelter=10503
83,42.363951,-87.881796,339,N Lakewood Ave,Waukegan,IL,Lake County,60085,https://www.homelessshelterdirectory.org/cgi-bin/id/shelter.cgi?shelter=15951
84,42.370495,-87.854044,1800,Grand Ave,Waukegan,IL,Lake County,60085,https://www.homelessshelterdirectory.org/cgi-bin/id/shelter.cgi?shelter=15950
86,42.37774,-87.840596,800,W Glen Flora Ave,Waukegan,IL,Lake County,60085,https://www.homelessshelterdirectory.org/cgi-bin/id/shelter.cgi?shelter=15952
88,42.347806,-87.83384,642,S Martin Luther King Jr Ave,Waukegan,IL,Lake County,60085,https://www.homelessshelterdirectory.org/cgi-bin/id/shelter.cgi?shelter=12362
1,41.85925,-88.097635,605,E Roosevelt Rd,Wheaton,IL,Dupage County,60187,https://www.homelessshelterdirectory.org/cgi-bin/id/shelter.cgi?shelter=15945
2,41.864228,-88.11681,705,W Liberty Dr,Wheaton,IL,Dupage County,60187,https://www.homelessshelterdirectory.org/cgi-bin/id/shelter.cgi?shelter=11405
37,41.690434,-87.783947,6602,W 111th St,Worth,IL,Cook County,60482,https://www.homelessshelterdirectory.org/cgi-bin/id/shelter.cgi?shelter=13202
33,41.692173,-87.80701,11005,S 76th Ave,Worth,IL,Cook County,60482,https://www.homelessshelterdirectory.org/cgi-bin/id/shelter.cgi?shelter=15857
98,41.631299,-88.443274,1204,Deer St,Yorkville,IL,Kendall County,60560,https://www.homelessshelterdirectory.org/cgi-bin/id/shelter.cgi?shelter=10418
82,42.465929,-87.850311,2710,17th St,Zion,IL,Lake County,60099,https://www.homelessshelterdirectory.org/cgi-bin/id/shelter.cgi?shelter=15948
1,32.452379,-99.741307,305,Grape St,Abilene,TX,Taylor County,79601,https://www.homelessshelterdirectory.org/cgi-bin/id/shelter.cgi?shelter=11480
3,32.439966,-99.728143,801,S Treadaway Blvd,Abilene,TX,Taylor County,79602,https://www.homelessshelterdirectory.org/cgi-bin/id/shelter.cgi?shelter=7096
4,32.428728,-99.73876,1726,Butternut St,Abilene,TX,Taylor County,79602,https://www.homelessshelterdirectory.org/cgi-bin/id/shelter.cgi?shelter=11481
2,32.452568,-99.756721,233,Fannin St,Abilene,TX,Taylor County,79603,https://www.homelessshelterdirectory.org/cgi-bin/id/shelter.cgi?shelter=11482
91,35.20829,-101.846846,613,S Adams St,Amarillo,TX,Potter County,79101,https://www.homelessshelterdirectory.org/cgi-bin/id/shelter.cgi?shelter=7316
92,35.21001,-101.842644,409,S Monroe St,Amarillo,TX,Potter County,79101,https://www.homelessshelterdirectory.org/cgi-bin/id/shelter.cgi?shelter=7404
93,35.209606,-101.839607,400,S Harrison St,Amarillo,TX,Potter County,79101,https://www.homelessshelterdirectory.org/cgi-bin/id/shelter.cgi?shelter=16002
94,35.211904,-101.840982,209,S Jackson St,Amarillo,TX,Potter County,79101,https://www.homelessshelterdirectory.org/cgi-bin/id/shelter.cgi?shelter=8315
95,35.211661,-101.837911,200,S Tyler St,Amarillo,TX,Potter County,79101,https://www.homelessshelterdirectory.org/cgi-bin/id/shelter.cgi?shelter=14315
97,35.18774,-101.915598,7136,W I-40,Amarillo,TX,Potter County,79106,https://www.homelessshelterdirectory.org/cgi-bin/id/shelter.cgi?shelter=7458
90,35.195758,-101.85101,1204,W 18th Ave,Amarillo,TX,Potter County,79102,https://www.homelessshelterdirectory.org/cgi-bin/id/shelter.cgi?shelter=7741
96,35.219659,-101.835313,600,N Tyler St,Amarillo,TX,Potter County,79107,https://www.homelessshelterdirectory.org/cgi-bin/id/shelter.cgi?shelter=7447
35,32.743412,-97.112431,401,W Sanford St,Arlington,TX,Tarrant County,76011,https://www.homelessshelterdirectory.org/cgi-bin/id/shelter.cgi?shelter=7134
39,32.734989,-97.115784,712,W Abram St,Arlington,TX,Tarrant County,76013,https://www.homelessshelterdirectory.org/cgi-bin/id/shelter.cgi?shelter=13732
37,32.734724,-97.109246,210,W South St,Arlington,TX,Tarrant County,76010,https://www.homelessshelterdirectory.org/cgi-bin/id/shelter.cgi?shelter=7771
36,32.739615,-97.110247,325,W Division St,Arlington,TX,Tarrant County,76011,https://www.homelessshelterdirectory.org/cgi-bin/id/shelter.cgi?shelter=7132
115,30.267982,-97.737619,500,E 7th St,Austin,TX,Travis County,78701,https://www.homelessshelterdirectory.org/cgi-bin/id/shelter.cgi?shelter=7090
116,30.259889,-97.701014,821,Gunter St,Austin,TX,Travis County,78702,https://www.homelessshelterdirectory.org/cgi-bin/id/shelter.cgi?shelter=7236
117,30.283921,-97.670487,4613,Tannehill Ln,Austin,TX,Travis County,78721,https://www.homelessshelterdirectory.org/cgi-bin/id/shelter.cgi?shelter=7149
118,30.340305,-97.675972,8505,Cross Park Dr,Austin,TX,Travis County,78754,https://www.homelessshelterdirectory.org/cgi-bin/id/shelter.cgi?shelter=14727
62,32.989844,-97.54456,14435,N FM 730,Azle,TX,Parker County,76020,https://www.homelessshelterdirectory.org/cgi-bin/id/shelter.cgi?shelter=11759
125,28.980321,-95.956603,2805,4th St,Bay City,TX,Matagorda County,77414,https://www.homelessshelterdirectory.org/cgi-bin/id/shelter.cgi?shelter=7744
89,29.72961,-95.008361,3406,Wisconsin St,Baytown,TX,Harris County,77520,https://www.homelessshelterdirectory.org/cgi-bin/id/shelter.cgi?shelter=7161
130,30.096588,-94.123355,2350,Interstate Highway 10 E,Beaumont,TX,Jefferson County,77702,https://www.homelessshelterdirectory.org/cgi-bin/id/shelter.cgi?shelter=11543
131,30.103047,-94.108392,2509,Cable Ave,Beaumont,TX,Jefferson County,77703,https://www.homelessshelterdirectory.org/cgi-bin/id/shelter.cgi?shelter=9903
132,30.127475,-94.15027,5670,Concord Rd,Beaumont,TX,Jefferson County,77708,https://www.homelessshelterdirectory.org/cgi-bin/id/shelter.cgi?shelter=7477
33,32.852275,-97.148091,1912,Central Dr,Bedford,TX,Tarrant County,76021,https://www.homelessshelterdirectory.org/cgi-bin/id/shelter.cgi?shelter=20374
141,31.057241,-97.46273,204,Northeast St,Belton,TX,Bell County,76513,https://www.homelessshelterdirectory.org/cgi-bin/id/shelter.cgi?shelter=11484
161,30.171282,-96.39475,500,E Academy St,Brenham,TX,Washington County,77833,https://www.homelessshelterdirectory.org/cgi-bin/id/shelter.cgi?shelter=7450
164,25.906039,-97.491518,1254,E Tyler St,Brownsville,TX,Cameron County,78520,https://www.homelessshelterdirectory.org/cgi-bin/id/shelter.cgi?shelter=15737
163,25.932296,-97.470232,95,E Price Rd,Brownsville,TX,Cameron County,78521,https://www.homelessshelterdirectory.org/cgi-bin/id/shelter.cgi?shelter=7486
165,25.923696,-97.431474,656,N Minnesota Ave,Brownsville,TX,Cameron County,78521,https://www.homelessshelterdirectory.org/cgi-bin/id/shelter.cgi?shelter=13833
169,31.7101,-98.980004,1101,Ave D,Brownwood,TX,Brown County,76801,https://www.homelessshelterdirectory.org/cgi-bin/id/shelter.cgi?shelter=20424
170,31.727949,-98.986031,1001,Belle Plain St,Brownwood,TX,Brown County,76801,https://www.homelessshelterdirectory.org/cgi-bin/id/shelter.cgi?shelter=15172
171,31.730862,-98.991582,403,Lakeway Dr,Brownwood,TX,Brown County,76801,https://www.homelessshelterdirectory.org/cgi-bin/id/shelter.cgi?shelter=11553
176,30.644831,-96.361468,2505,S College Ave,Bryan,TX,Brazos County,77801,https://www.homelessshelterdirectory.org/cgi-bin/id/shelter.cgi?shelter=9611
177,30.649715,-96.33444,1806,Wilde Oak Cir,Bryan,TX,Brazos County,77802,https://www.homelessshelterdirectory.org/cgi-bin/id/shelter.cgi?shelter=11493
172,30.675622,-96.369033,408,E 24th St,Bryan,TX,Brazos County,77803,https://www.homelessshelterdirectory.org/cgi-bin/id/shelter.cgi?shelter=11492
174,30.668869,-96.380379,410,S Randolph Ave,Bryan,TX,Brazos County,77803,https://www.homelessshelterdirectory.org/cgi-bin/id/shelter.cgi?shelter=11495
175,30.656767,-96.380829,1700,Groesbeck St,Bryan,TX,Brazos County,77803,https://www.homelessshelterdirectory.org/cgi-bin/id/shelter.cgi?shelter=11494
135,30.312272,-94.088664,3964,Farm To Market Rd 1131,Evadale,TX,Jasper County,77615,https://www.homelessshelterdirectory.org/cgi-bin/id/shelter.cgi?shelter=14179
64,32.428209,-97.404486,660,County Rd 903,Cleburne,TX,Johnson County,76033,https://www.homelessshelterdirectory.org/cgi-bin/id/shelter.cgi?shelter=7669
173,30.675622,-96.369033,408,E 24th St,Bryan,TX,Brazos County,77803,https://www.homelessshelterdirectory.org/cgi-bin/id/shelter.cgi?shelter=10514
196,32.3892,-100.864158,301,E 3rd St,Colorado City,TX,Mitchell County,79512,https://www.homelessshelterdirectory.org/cgi-bin/id/shelter.cgi?shelter=11509
189,30.323482,-95.442719,1405,Airport Rd,Conroe,TX,Montgomery County,77301,https://www.homelessshelterdirectory.org/cgi-bin/id/shelter.cgi?shelter=13729
190,30.308928,-95.452723,301,Ave E,Conroe,TX,Montgomery County,77301,https://www.homelessshelterdirectory.org/cgi-bin/id/shelter.cgi?shelter=7971
191,30.319934,-95.458404,1207,N Thompson St,Conroe,TX,Montgomery County,77301,https://www.homelessshelterdirectory.org/cgi-bin/id/shelter.cgi?shelter=7778
192,30.314371,-95.467026,1022,McCall Ave,Conroe,TX,Montgomery County,77301,https://www.homelessshelterdirectory.org/cgi-bin/id/shelter.cgi?shelter=13728
193,30.37466,-95.479584,4495,N Frazier St,Conroe,TX,Montgomery County,77303,https://www.homelessshelterdirectory.org/cgi-bin/id/shelter.cgi?shelter=11659
194,30.374942,-95.481075,4501,N Frazier St,Conroe,TX,Montgomery County,77303,https://www.homelessshelterdirectory.org/cgi-bin/id/shelter.cgi?shelter=11657
197,29.512935,-98.288902,8555,E Loop 1604 N,Converse,TX,Bexar County,78109,https://www.homelessshelterdirectory.org/cgi-bin/id/shelter.cgi?shelter=14728
179,31.128488,-97.898243,108,E Halstead Ave,Copperas Cove,TX,Coryell County,76522,https://www.homelessshelterdirectory.org/cgi-bin/id/shelter.cgi?shelter=11613
199,31.119552,-97.879098,811,Martin Luther King Jr,Copperas Cove,TX,Coryell County,76522,https://www.homelessshelterdirectory.org/cgi-bin/id/shelter.cgi?shelter=8144
104,27.796465,-97.402049,709,Waco St,Corpus Christi,TX,Nueces County,78401,https://www.homelessshelterdirectory.org/cgi-bin/id/shelter.cgi?shelter=8014
105,27.794453,-97.405419,513,Sam Rankin St,Corpus Christi,TX,Nueces County,78401,https://www.homelessshelterdirectory.org/cgi-bin/id/shelter.cgi?shelter=13828
106,27.794453,-97.405419,513,Sam Rankin St,Corpus Christi,TX,Nueces County,78401,https://www.homelessshelterdirectory.org/cgi-bin/id/shelter.cgi?shelter=14606
107,27.794453,-97.405419,513,Sam Rankin St,Corpus Christi,TX,Nueces County,78401,https://www.homelessshelterdirectory.org/cgi-bin/id/shelter.cgi?shelter=13827
108,27.789618,-97.403814,210,S Alameda St,Corpus Christi,TX,Nueces County,78401,https://www.homelessshelterdirectory.org/cgi-bin/id/shelter.cgi?shelter=9803
109,27.794486,-97.406554,513,Josephine St,Corpus Christi,TX,Nueces County,78401,https://www.homelessshelterdirectory.org/cgi-bin/id/shelter.cgi?shelter=11453
110,27.794495,-97.406407,501,Josephine St,Corpus Christi,TX,Nueces County,78401,https://www.homelessshelterdirectory.org/cgi-bin/id/shelter.cgi?shelter=11540
111,27.781538,-97.398844,813,Buford St,Corpus Christi,TX,Nueces County,78404,https://www.homelessshelterdirectory.org/cgi-bin/id/shelter.cgi?shelter=13829
113,27.755973,-97.392567,658,Robinson St,Corpus Christi,TX,Nueces County,78404,https://www.homelessshelterdirectory.org/cgi-bin/id/shelter.cgi?shelter=11510
103,27.796184,-97.399844,919,Leopard St,Corpus Christi,TX,Nueces County,78401,https://www.homelessshelterdirectory.org/cgi-bin/id/shelter.cgi?shelter=14605
112,27.796674,-97.411548,1919,Leopard St,Corpus Christi,TX,Nueces County,78408,https://www.homelessshelterdirectory.org/cgi-bin/id/shelter.cgi?shelter=11447
14,32.797014,-96.802909,2707,Routh St,Dallas,TX,Dallas County,75201,https://www.homelessshelterdirectory.org/cgi-bin/id/shelter.cgi?shelter=8168
19,32.778194,-96.793961,1822,Young St,Dallas,TX,Dallas County,75201,https://www.homelessshelterdirectory.org/cgi-bin/id/shelter.cgi?shelter=11567
20,32.776935,-96.79435,711,S St Paul St,Dallas,TX,Dallas County,75201,https://www.homelessshelterdirectory.org/cgi-bin/id/shelter.cgi?shelter=7456
21,32.775954,-96.791432,1818,Corsicana St,Dallas,TX,Dallas County,75201,https://www.homelessshelterdirectory.org/cgi-bin/id/shelter.cgi?shelter=10109
22,32.775954,-96.791432,1818,Corsicana St,Dallas,TX,Dallas County,75201,https://www.homelessshelterdirectory.org/cgi-bin/id/shelter.cgi?shelter=16010
27,32.755245,-96.807315,1128,Reverend Cbt Smith St,Dallas,TX,Dallas County,75203,https://www.homelessshelterdirectory.org/cgi-bin/id/shelter.cgi?shelter=14220
18,32.786025,-96.788083,402,N Good Latimer Expy,Dallas,TX,Dallas County,75204,https://www.homelessshelterdirectory.org/cgi-bin/id/shelter.cgi?shelter=8025
29,32.745438,-96.826195,233,W 10th St,Dallas,TX,Dallas County,75208,https://www.homelessshelterdirectory.org/cgi-bin/id/shelter.cgi?shelter=7607
30,32.739894,-96.825739,224,W Page Ave,Dallas,TX,Dallas County,75208,https://www.homelessshelterdirectory.org/cgi-bin/id/shelter.cgi?shelter=7891
26,32.767628,-96.751397,2706,S 2nd Ave,Dallas,TX,Dallas County,75210,https://www.homelessshelterdirectory.org/cgi-bin/id/shelter.cgi?shelter=14703
24,32.771509,-96.797902,1100,Cadiz St,Dallas,TX,Dallas County,75215,https://www.homelessshelterdirectory.org/cgi-bin/id/shelter.cgi?shelter=7376
25,32.767144,-96.758167,3110,Metropolitan Ave,Dallas,TX,Dallas County,75215,https://www.homelessshelterdirectory.org/cgi-bin/id/shelter.cgi?shelter=14854
10,32.818185,-96.81346,4411,Lemmon Ave,Dallas,TX,Dallas County,75219,https://www.homelessshelterdirectory.org/cgi-bin/id/shelter.cgi?shelter=7495
31,32.722697,-96.828165,341,W Woodin Blvd,Dallas,TX,Dallas County,75224,https://www.homelessshelterdirectory.org/cgi-bin/id/shelter.cgi?shelter=13634
23,32.778953,-96.775839,2929,Hickory St,Dallas,TX,Dallas County,75226,https://www.homelessshelterdirectory.org/cgi-bin/id/shelter.cgi?shelter=7150
34,32.651557,-96.830533,522,Shadyway Dr,Dallas,TX,Dallas County,75232,https://www.homelessshelterdirectory.org/cgi-bin/id/shelter.cgi?shelter=14931
11,32.812626,-96.829205,4815,Cass St,Dallas,TX,Dallas County,75235,https://www.homelessshelterdirectory.org/cgi-bin/id/shelter.cgi?shelter=16009
12,32.813872,-96.837553,5302,Harry Hines Blvd,Dallas,TX,Dallas County,75235,https://www.homelessshelterdirectory.org/cgi-bin/id/shelter.cgi?shelter=11545
13,32.808938,-96.870058,3211,Irving Blvd,Dallas,TX,Dallas County,75247,https://www.homelessshelterdirectory.org/cgi-bin/id/shelter.cgi?shelter=8172
40,32.660409,-96.624719,13134,Nile Dr,Dallas,TX,Dallas County,75253,https://www.homelessshelterdirectory.org/cgi-bin/id/shelter.cgi?shelter=9982
204,33.759929,-96.539426,331,W Morton St,Denison,TX,Grayson County,75020,https://www.homelessshelterdirectory.org/cgi-bin/id/shelter.cgi?shelter=7523
42,33.230704,-97.142746,1014,W University Dr,Denton,TX,Denton County,76201,https://www.homelessshelterdirectory.org/cgi-bin/id/shelter.cgi?shelter=7482
41,33.215471,-97.113299,1508,E McKinney St,Denton,TX,Denton County,76209,https://www.homelessshelterdirectory.org/cgi-bin/id/shelter.cgi?shelter=11546
208,35.858948,-101.976382,306,W 7th St,Dumas,TX,Moore County,79029,https://www.homelessshelterdirectory.org/cgi-bin/id/shelter.cgi?shelter=7946
212,31.765484,-106.471227,221,N Lee St,El Paso,TX,El Paso County,79901,https://www.homelessshelterdirectory.org/cgi-bin/id/shelter.cgi?shelter=7911
213,31.764073,-106.477027,1220,Myrtle Ave,El Paso,TX,El Paso County,79901,https://www.homelessshelterdirectory.org/cgi-bin/id/shelter.cgi?shelter=15997
214,31.764102,-106.476645,1208,Myrtle Ave,El Paso,TX,El Paso County,79901,https://www.homelessshelterdirectory.org/cgi-bin/id/shelter.cgi?shelter=15996
215,31.760106,-106.479753,1003,E San Antonio Ave,El Paso,TX,El Paso County,79901,https://www.homelessshelterdirectory.org/cgi-bin/id/shelter.cgi?shelter=7127
216,31.751216,-106.477951,1014,S Virginia St,El Paso,TX,El Paso County,79901,https://www.homelessshelterdirectory.org/cgi-bin/id/shelter.cgi?shelter=15998
218,31.750885,-106.485574,920,S Oregon St,El Paso,TX,El Paso County,79901,https://www.homelessshelterdirectory.org/cgi-bin/id/shelter.cgi?shelter=13210
219,31.750885,-106.485574,920,S Oregon St,El Paso,TX,El Paso County,79901,https://www.homelessshelterdirectory.org/cgi-bin/id/shelter.cgi?shelter=16000
217,31.766944,-106.490106,1020,N Campbell St,El Paso,TX,El Paso County,79902,https://www.homelessshelterdirectory.org/cgi-bin/id/shelter.cgi?shelter=7689
210,31.767943,-106.426947,5300,Paisano Dr,El Paso,TX,El Paso County,79905,https://www.homelessshelterdirectory.org/cgi-bin/id/shelter.cgi?shelter=11520
211,31.767296,-106.440735,4300,E Paisano Dr,El Paso,TX,El Paso County,79905,https://www.homelessshelterdirectory.org/cgi-bin/id/shelter.cgi?shelter=15999
220,31.726685,-106.351688,8023,San Jose Rd,El Paso,TX,El Paso County,79915,https://www.homelessshelterdirectory.org/cgi-bin/id/shelter.cgi?shelter=11541
209,31.796555,-106.449466,3700,Altura Ave,El Paso,TX,El Paso County,79930,https://www.homelessshelterdirectory.org/cgi-bin/id/shelter.cgi?shelter=16001
53,32.745841,-97.317617,1100,E Lancaster Ave,Fort Worth,TX,Tarrant County,76102,https://www.homelessshelterdirectory.org/cgi-bin/id/shelter.cgi?shelter=9690
63,32.755841,-97.214109,5601,Bridge St,Fort Worth,TX,Tarrant County,76112,https://www.homelessshelterdirectory.org/cgi-bin/id/shelter.cgi?shelter=12680
49,32.732546,-97.332484,1100,Hemphill St,Fort Worth,TX,Tarrant County,76104,https://www.homelessshelterdirectory.org/cgi-bin/id/shelter.cgi?shelter=7856
52,32.752982,-97.334886,512,W 4th St,Fort Worth,TX,Tarrant County,76102,https://www.homelessshelterdirectory.org/cgi-bin/id/shelter.cgi?shelter=7476
54,32.746387,-97.315333,1321,E Lancaster Ave,Fort Worth,TX,Tarrant County,76102,https://www.homelessshelterdirectory.org/cgi-bin/id/shelter.cgi?shelter=8174
55,32.744672,-97.313785,2400,Cypress St,Fort Worth,TX,Tarrant County,76102,https://www.homelessshelterdirectory.org/cgi-bin/id/shelter.cgi?shelter=11539
56,32.744672,-97.313785,2400,Cypress St,Fort Worth,TX,Tarrant County,76102,https://www.homelessshelterdirectory.org/cgi-bin/id/shelter.cgi?shelter=7882
57,32.746686,-97.301311,1855,E Lancaster Ave,Fort Worth,TX,Tarrant County,76103,https://www.homelessshelterdirectory.org/cgi-bin/id/shelter.cgi?shelter=9692
50,32.732546,-97.332484,1100,Hemphill St,Fort Worth,TX,Tarrant County,76104,https://www.homelessshelterdirectory.org/cgi-bin/id/shelter.cgi?shelter=9691
51,32.734342,-97.331077,929,Hemphill St,Fort Worth,TX,Tarrant County,76104,https://www.homelessshelterdirectory.org/cgi-bin/id/shelter.cgi?shelter=8104
58,32.724676,-97.286908,2701,Burchill Rd,Fort Worth,TX,Tarrant County,76105,https://www.homelessshelterdirectory.org/cgi-bin/id/shelter.cgi?shelter=7248
59,32.769586,-97.29705,3500,Noble Ave,Fort Worth,TX,Tarrant County,76111,https://www.homelessshelterdirectory.org/cgi-bin/id/shelter.cgi?shelter=7357
60,32.709493,-97.279963,3712,Wichita St,Fort Worth,TX,Tarrant County,76119,https://www.homelessshelterdirectory.org/cgi-bin/id/shelter.cgi?shelter=9693
99,28.976191,-95.372563,1618,N Ave J,Freeport,TX,Brazoria County,77541,https://www.homelessshelterdirectory.org/cgi-bin/id/shelter.cgi?shelter=14558
100,28.976191,-95.372563,1618,N Ave J,Freeport,TX,Brazoria County,77541,https://www.homelessshelterdirectory.org/cgi-bin/id/shelter.cgi?shelter=14627
200,29.294708,-94.825798,601,51st St,Galveston,TX,Galveston County,77551,https://www.homelessshelterdirectory.org/cgi-bin/id/shelter.cgi?shelter=11454
201,29.302599,-94.794758,2420,Winnie St,Galveston,TX,Galveston County,77550,https://www.homelessshelterdirectory.org/cgi-bin/id/shelter.cgi?shelter=11446
202,29.313542,-94.769321,201,1st St,Galveston,TX,Galveston County,77550,https://www.homelessshelterdirectory.org/cgi-bin/id/shelter.cgi?shelter=8118
203,29.297294,-94.789551,2127,Ave M,Galveston,TX,Galveston County,77550,https://www.homelessshelterdirectory.org/cgi-bin/id/shelter.cgi?shelter=11521
15,32.913847,-96.642431,218,N 10th St,Garland,TX,Dallas County,75040,https://www.homelessshelterdirectory.org/cgi-bin/id/shelter.cgi?shelter=7794
17,32.9092,-96.635946,451,W Ave D,Garland,TX,Dallas County,75040,https://www.homelessshelterdirectory.org/cgi-bin/id/shelter.cgi?shelter=11547
136,28.368432,-98.143234,3454,Hwy 281,George West,TX,Live Oak County,78022,https://www.homelessshelterdirectory.org/cgi-bin/id/shelter.cgi?shelter=11450
223,33.10511,-98.59092,503,2nd St,Graham,TX,Young County,76450,https://www.homelessshelterdirectory.org/cgi-bin/id/shelter.cgi?shelter=11523
32,32.748366,-97.005921,202,College St,Grand Prairie,TX,Dallas County,75050,https://www.homelessshelterdirectory.org/cgi-bin/id/shelter.cgi?shelter=13832
44,32.629129,-97.065329,3119,Teodoro Dr,Grand Prairie,TX,Tarrant County,75052,https://www.homelessshelterdirectory.org/cgi-bin/id/shelter.cgi?shelter=20480
167,26.188408,-97.701247,514,S E St,Harlingen,TX,Cameron County,78550,https://www.homelessshelterdirectory.org/cgi-bin/id/shelter.cgi?shelter=7712
168,26.187676,-97.701245,616,W Taylor Ave,Harlingen,TX,Cameron County,78550,https://www.homelessshelterdirectory.org/cgi-bin/id/shelter.cgi?shelter=7455
84,29.76071,-95.35131,1811,Ruiz St,Houston,TX,Harris County,77002,https://www.homelessshelterdirectory.org/cgi-bin/id/shelter.cgi?shelter=11448
75,29.732948,-95.384712,4640,Main St,Houston,TX,Harris County,77002,https://www.homelessshelterdirectory.org/cgi-bin/id/shelter.cgi?shelter=8169
81,29.757047,-95.351736,2009,Congress St,Houston,TX,Harris County,77002,https://www.homelessshelterdirectory.org/cgi-bin/id/shelter.cgi?shelter=15258
82,29.757257,-95.353598,320,Hamilton St,Houston,TX,Harris County,77002,https://www.homelessshelterdirectory.org/cgi-bin/id/shelter.cgi?shelter=7798
83,29.758606,-95.353767,1717,Congress St,Houston,TX,Harris County,77002,https://www.homelessshelterdirectory.org/cgi-bin/id/shelter.cgi?shelter=15257
86,29.759234,-95.35981,1212,Prairie St,Houston,TX,Harris County,77002,https://www.homelessshelterdirectory.org/cgi-bin/id/shelter.cgi?shelter=13485
80,29.753677,-95.349065,419,Dowling St,Houston,TX,Harris County,77003,https://www.homelessshelterdirectory.org/cgi-bin/id/shelter.cgi?shelter=8086
72,29.720435,-95.373606,2505,Southmore Blvd,Houston,TX,Harris County,77004,https://www.homelessshelterdirectory.org/cgi-bin/id/shelter.cgi?shelter=12558
73,29.731638,-95.35179,3410,Drew St,Houston,TX,Harris County,77004,https://www.homelessshelterdirectory.org/cgi-bin/id/shelter.cgi?shelter=13988
76,29.738932,-95.37358,3209,Austin St,Houston,TX,Harris County,77004,https://www.homelessshelterdirectory.org/cgi-bin/id/shelter.cgi?shelter=11451
77,29.742353,-95.368287,1603,McGowen St,Houston,TX,Harris County,77004,https://www.homelessshelterdirectory.org/cgi-bin/id/shelter.cgi?shelter=7979
78,29.743088,-95.393388,1111,Lovett Blvd,Houston,TX,Harris County,77006,https://www.homelessshelterdirectory.org/cgi-bin/id/shelter.cgi?shelter=7364
74,29.740675,-95.316691,5803,Harrisburg Blvd,Houston,TX,Harris County,77011,https://www.homelessshelterdirectory.org/cgi-bin/id/shelter.cgi?shelter=8139
70,29.686771,-95.276522,3827,Broadway St,Houston,TX,Harris County,77017,https://www.homelessshelterdirectory.org/cgi-bin/id/shelter.cgi?shelter=14905
181,29.831787,-95.402613,4516,Old Yale St,Houston,TX,Harris County,77018,https://www.homelessshelterdirectory.org/cgi-bin/id/shelter.cgi?shelter=10260
182,29.831787,-95.402613,4516,Old Yale St,Houston,TX,Harris County,77018,https://www.homelessshelterdirectory.org/cgi-bin/id/shelter.cgi?shelter=14158
87,29.756975,-95.398652,1010,Waugh Dr,Houston,TX,Harris County,77019,https://www.homelessshelterdirectory.org/cgi-bin/id/shelter.cgi?shelter=7626
71,29.651403,-95.501875,6342,Ludington Dr,Houston,TX,Harris County,77035,https://www.homelessshelterdirectory.org/cgi-bin/id/shelter.cgi?shelter=15010
225,29.845124,-95.547189,10247,Algiers Rd,Houston,TX,Harris County,77041,https://www.homelessshelterdirectory.org/cgi-bin/id/shelter.cgi?shelter=7773
88,29.738979,-95.478788,5718,Westheimer Rd,Houston,TX,Harris County,77057,https://www.homelessshelterdirectory.org/cgi-bin/id/shelter.cgi?shelter=20468
183,29.800135,-95.481624,1701,Jacquelyn Dr,Houston,TX,Harris County,77055,https://www.homelessshelterdirectory.org/cgi-bin/id/shelter.cgi?shelter=9695
184,29.806911,-95.481661,2005,Jacquelyn Dr,Houston,TX,Harris County,77055,https://www.homelessshelterdirectory.org/cgi-bin/id/shelter.cgi?shelter=8011
79,29.71135,-95.478004,6300,Chimney Rock Rd,Houston,TX,Harris County,77081,https://www.homelessshelterdirectory.org/cgi-bin/id/shelter.cgi?shelter=7557
85,29.76071,-95.35131,1811,Ruiz St,Houston,TX,Harris County,77002,https://www.homelessshelterdirectory.org/cgi-bin/id/shelter.cgi?shelter=9696
185,29.93205,-95.479957,13617,Kaltenbrun Rd,Houston,TX,Harris County,77086,https://www.homelessshelterdirectory.org/cgi-bin/id/shelter.cgi?shelter=12646
186,30.00376,-95.461991,15555,Kuykendahl Rd,Houston,TX,Harris County,77090,https://www.homelessshelterdirectory.org/cgi-bin/id/shelter.cgi?shelter=7822
126,29.891523,-95.308216,5609,Mt Houston Rd,Houston,TX,Harris County,77093,https://www.homelessshelterdirectory.org/cgi-bin/id/shelter.cgi?shelter=15819
127,29.860376,-95.344202,2605,Parker Rd,Houston,TX,Harris County,77093,https://www.homelessshelterdirectory.org/cgi-bin/id/shelter.cgi?shelter=14628
129,29.995899,-95.259712,111,S Ave G,Humble,TX,Harris County,77338,https://www.homelessshelterdirectory.org/cgi-bin/id/shelter.cgi?shelter=11449
128,29.983107,-95.259673,1203,S Houston Ave,Humble,TX,Harris County,77338,https://www.homelessshelterdirectory.org/cgi-bin/id/shelter.cgi?shelter=7460
227,30.72492,-95.543034,1005,Martin Luther King Jr Dr,Huntsville,TX,Walker County,77320,https://www.homelessshelterdirectory.org/cgi-bin/id/shelter.cgi?shelter=9798
16,32.821298,-96.957252,928,Bluebird Dr,Irving,TX,Dallas County,75061,https://www.homelessshelterdirectory.org/cgi-bin/id/shelter.cgi?shelter=14945
124,32.60748,-96.278671,2675,N State Highway 34,Kaufman,TX,Kaufman County,75142,https://www.homelessshelterdirectory.org/cgi-bin/id/shelter.cgi?shelter=11522
221,30.046728,-99.136932,429,Washington St,Kerrville,TX,Kerr County,78028,https://www.homelessshelterdirectory.org/cgi-bin/id/shelter.cgi?shelter=7582
145,31.12491,-97.72489,412,E Sprott St,Killeen,TX,Bell County,76541,https://www.homelessshelterdirectory.org/cgi-bin/id/shelter.cgi?shelter=16005
146,31.12546,-97.727141,818,N 4th St,Killeen,TX,Bell County,76541,https://www.homelessshelterdirectory.org/cgi-bin/id/shelter.cgi?shelter=16006
228,27.506404,-99.499879,408,Matamoros St,Laredo,TX,Webb County,78040,https://www.homelessshelterdirectory.org/cgi-bin/id/shelter.cgi?shelter=11460
229,27.504705,-99.504102,815,Hidalgo St,Laredo,TX,Webb County,78040,https://www.homelessshelterdirectory.org/cgi-bin/id/shelter.cgi?shelter=11455
195,30.695139,-94.930338,1607,S Washington Ave,Livingston,TX,Polk County,77351,https://www.homelessshelterdirectory.org/cgi-bin/id/shelter.cgi?shelter=10279
180,32.492536,-94.732245,519,E Cotton St,Longview,TX,Gregg County,75601,https://www.homelessshelterdirectory.org/cgi-bin/id/shelter.cgi?shelter=11558
121,32.506909,-94.787828,3011,W Marshall Ave,Longview,TX,Gregg County,75604,https://www.homelessshelterdirectory.org/cgi-bin/id/shelter.cgi?shelter=11527
123,32.50706,-94.789129,3117,W Marshall Ave,Longview,TX,Gregg County,75604,https://www.homelessshelterdirectory.org/cgi-bin/id/shelter.cgi?shelter=11526
122,32.50706,-94.789129,3117,W Marshall Ave,Longview,TX,Gregg County,75604,https://www.homelessshelterdirectory.org/cgi-bin/id/shelter.cgi?shelter=10183
230,33.580292,-101.852294,1611,Ave O,Lubbock,TX,Lubbock County,79401,https://www.homelessshelterdirectory.org/cgi-bin/id/shelter.cgi?shelter=16013
231,33.580311,-101.846968,1614,Ave J,Lubbock,TX,Lubbock County,79401,https://www.homelessshelterdirectory.org/cgi-bin/id/shelter.cgi?shelter=11550
232,33.581587,-101.849986,1319,15th St,Lubbock,TX,Lubbock County,79401,https://www.homelessshelterdirectory.org/cgi-bin/id/shelter.cgi?shelter=10802
207,31.336038,-94.723544,323,Moody St,Lufkin,TX,Angelina County,75901,https://www.homelessshelterdirectory.org/cgi-bin/id/shelter.cgi?shelter=7502
120,32.529704,-94.338013,2610,Elysian Fields Ave,Marshall,TX,Harrison County,75672,https://www.homelessshelterdirectory.org/cgi-bin/id/shelter.cgi?shelter=13287
45,26.203106,-98.23543,111,S 15th St,McAllen,TX,Hidalgo County,78501,https://www.homelessshelterdirectory.org/cgi-bin/id/shelter.cgi?shelter=15738
46,26.206742,-98.239295,1901,Cedar Ave,McAllen,TX,Hidalgo County,78501,https://www.homelessshelterdirectory.org/cgi-bin/id/shelter.cgi?shelter=14834
47,26.208653,-98.241099,420,N 21st St,McAllen,TX,Hidalgo County,78501,https://www.homelessshelterdirectory.org/cgi-bin/id/shelter.cgi?shelter=7783
38,33.221609,-96.612752,1710,N McDonald St,McKinney,TX,Collin County,75071,https://www.homelessshelterdirectory.org/cgi-bin/id/shelter.cgi?shelter=14390
234,31.99498,-102.108184,2908,W Ohio Ave,Midland,TX,Midland County,79701,https://www.homelessshelterdirectory.org/cgi-bin/id/shelter.cgi?shelter=11516
235,31.998189,-102.061396,,E Wall St,Midland,TX,Midland County,79701,https://www.homelessshelterdirectory.org/cgi-bin/id/shelter.cgi?shelter=11551
236,32.035107,-102.115061,2400,Whitmire Blvd,Midland,TX,Midland County,79705,https://www.homelessshelterdirectory.org/cgi-bin/id/shelter.cgi?shelter=7765
233,31.640745,-94.654688,3909,North St,Nacogdoches,TX,Nacogdoches County,75965,https://www.homelessshelterdirectory.org/cgi-bin/id/shelter.cgi?shelter=8247
237,31.856263,-102.355947,1335,E 6th St,Odessa,TX,Ector County,79761,https://www.homelessshelterdirectory.org/cgi-bin/id/shelter.cgi?shelter=11528
238,31.855878,-102.354898,1354,E 6th St,Odessa,TX,Ector County,79761,https://www.homelessshelterdirectory.org/cgi-bin/id/shelter.cgi?shelter=11517
239,31.857341,-102.365099,810,E 11th St,Odessa,TX,Ector County,79761,https://www.homelessshelterdirectory.org/cgi-bin/id/shelter.cgi?shelter=11552
240,31.839056,-102.379649,1213,W 2nd St,Odessa,TX,Ector County,79763,https://www.homelessshelterdirectory.org/cgi-bin/id/shelter.cgi?shelter=11534
244,33.657682,-95.560268,450,4th St SW,Paris,TX,Lamar County,75460,https://www.homelessshelterdirectory.org/cgi-bin/id/shelter.cgi?shelter=14819
245,33.655773,-95.564595,615,9th St SW,Paris,TX,Lamar County,75460,https://www.homelessshelterdirectory.org/cgi-bin/id/shelter.cgi?shelter=11578
69,29.674209,-95.202559,711,Perla Rd,Pasadena,TX,Harris County,77502,https://www.homelessshelterdirectory.org/cgi-bin/id/shelter.cgi?shelter=9802
68,29.652472,-95.20602,3811,Allen Genoa Rd,Pasadena,TX,Harris County,77504,https://www.homelessshelterdirectory.org/cgi-bin/id/shelter.cgi?shelter=7211
7,33.011087,-96.705526,860,F Ave,Plano,TX,Collin County,75074,https://www.homelessshelterdirectory.org/cgi-bin/id/shelter.cgi?shelter=13830
8,33.02123,-96.702812,902,E 16th St,Plano,TX,Collin County,75074,https://www.homelessshelterdirectory.org/cgi-bin/id/shelter.cgi?shelter=7304
133,29.875964,-93.933538,900,6th St,Port Arthur,TX,Jefferson County,77640,https://www.homelessshelterdirectory.org/cgi-bin/id/shelter.cgi?shelter=11537
134,29.875577,-93.93357,531,Atlanta Ave,Port Arthur,TX,Jefferson County,77640,https://www.homelessshelterdirectory.org/cgi-bin/id/shelter.cgi?shelter=11531
101,29.413827,-95.762303,11614,Farm To Market Rd 361,Richmond,TX,Fort Bend County,77469,https://www.homelessshelterdirectory.org/cgi-bin/id/shelter.cgi?shelter=15822
119,30.495398,-97.66659,1011,Gattis School Rd,Round Rock,TX,Williamson County,78664,https://www.homelessshelterdirectory.org/cgi-bin/id/shelter.cgi?shelter=10284
153,29.456054,-98.50953,945,W Huisache Ave,San Antonio,TX,Bexar County,78201,https://www.homelessshelterdirectory.org/cgi-bin/id/shelter.cgi?shelter=8202
158,29.427292,-98.479715,226,Nolan St,San Antonio,TX,Bexar County,78202,https://www.homelessshelterdirectory.org/cgi-bin/id/shelter.cgi?shelter=11461
159,29.427246,-98.473659,626,Nolan St,San Antonio,TX,Bexar County,78202,https://www.homelessshelterdirectory.org/cgi-bin/id/shelter.cgi?shelter=11456
160,29.424288,-98.472808,414,N Hackberry St,San Antonio,TX,Bexar County,78202,https://www.homelessshelterdirectory.org/cgi-bin/id/shelter.cgi?shelter=11459
154,29.426272,-98.52156,2102,Buena Vista St,San Antonio,TX,Bexar County,78207,https://www.homelessshelterdirectory.org/cgi-bin/id/shelter.cgi?shelter=7537
155,29.432888,-98.505912,1,Haven For Hope Way,San Antonio,TX,Bexar County,78207,https://www.homelessshelterdirectory.org/cgi-bin/id/shelter.cgi?shelter=10120
151,29.505716,-98.466606,7911,Broadway,San Antonio,TX,Bexar County,78209,https://www.homelessshelterdirectory.org/cgi-bin/id/shelter.cgi?shelter=7459
198,29.387739,-98.491227,1115,Mission Rd,San Antonio,TX,Bexar County,78210,https://www.homelessshelterdirectory.org/cgi-bin/id/shelter.cgi?shelter=8024
156,29.434618,-98.498206,519,W Elmira St,San Antonio,TX,Bexar County,78212,https://www.homelessshelterdirectory.org/cgi-bin/id/shelter.cgi?shelter=11458
149,29.488838,-98.526708,3103,West Ave,San Antonio,TX,Bexar County,78213,https://www.homelessshelterdirectory.org/cgi-bin/id/shelter.cgi?shelter=8263
157,29.439693,-98.48606,907,E Quincy St,San Antonio,TX,Bexar County,78215,https://www.homelessshelterdirectory.org/cgi-bin/id/shelter.cgi?shelter=8001
150,29.498123,-98.506899,5254,Blanco Rd,San Antonio,TX,Bexar County,78216,https://www.homelessshelterdirectory.org/cgi-bin/id/shelter.cgi?shelter=7931
148,29.563446,-98.611361,6363,De Zavala Rd,San Antonio,TX,Bexar County,78249,https://www.homelessshelterdirectory.org/cgi-bin/id/shelter.cgi?shelter=8002
152,29.457269,-98.551532,2939,W Woodlawn Ave,San Antonio,TX,Bexar County,78228,https://www.homelessshelterdirectory.org/cgi-bin/id/shelter.cgi?shelter=8126
166,26.124456,-97.658962,,Marydale Rd,San Benito,TX,Cameron County,78586,https://www.homelessshelterdirectory.org/cgi-bin/id/shelter.cgi?shelter=11530
178,29.874687,-97.940292,518,S Guadalupe St,San Marcos,TX,Hays County,78666,https://www.homelessshelterdirectory.org/cgi-bin/id/shelter.cgi?shelter=8054
205,33.695036,-96.577043,5700,Texoma Pkwy,Sherman,TX,Grayson County,75090,https://www.homelessshelterdirectory.org/cgi-bin/id/shelter.cgi?shelter=11464
206,33.639263,-96.590688,1602,E Lamar St,Sherman,TX,Grayson County,75090,https://www.homelessshelterdirectory.org/cgi-bin/id/shelter.cgi?shelter=10426
143,31.092629,-97.330086,1018,E Ave A,Temple,TX,Bell County,76501,https://www.homelessshelterdirectory.org/cgi-bin/id/shelter.cgi?shelter=10266
142,31.090866,-97.349643,707,S 11th St,Temple,TX,Bell County,76504,https://www.homelessshelterdirectory.org/cgi-bin/id/shelter.cgi?shelter=13981
242,33.421933,-94.048449,402,Oak St,Texarkana,TX,Bowie County,75501,https://www.homelessshelterdirectory.org/cgi-bin/id/shelter.cgi?shelter=9923
67,29.379792,-94.969366,5105,Timothy St,Texas City,TX,Galveston County,77591,https://www.homelessshelterdirectory.org/cgi-bin/id/shelter.cgi?shelter=13199
187,30.171798,-95.462776,1600,Lakefront Cir,Spring,TX,Montgomery County,77381,https://www.homelessshelterdirectory.org/cgi-bin/id/shelter.cgi?shelter=7779
222,32.357045,-95.300376,633,N Broadway Ave,Tyler,TX,Smith County,75702,https://www.homelessshelterdirectory.org/cgi-bin/id/shelter.cgi?shelter=10559
248,31.039804,-104.828982,210,E Broadway St,Van Horn,TX,Culberson County,79855,https://www.homelessshelterdirectory.org/cgi-bin/id/shelter.cgi?shelter=8195
246,28.807186,-96.991962,1302,N Louis St,Victoria,TX,Victoria County,77901,https://www.homelessshelterdirectory.org/cgi-bin/id/shelter.cgi?shelter=11554
247,28.795939,-97.000013,705,E Santa Rosa St,Victoria,TX,Victoria County,77901,https://www.homelessshelterdirectory.org/cgi-bin/id/shelter.cgi?shelter=11536
137,31.549357,-97.136981,1217,Mary Ave,Waco,TX,McLennan County,76701,https://www.homelessshelterdirectory.org/cgi-bin/id/shelter.cgi?shelter=11535
138,31.549513,-97.140297,1421,Austin Ave,Waco,TX,McLennan County,76701,https://www.homelessshelterdirectory.org/cgi-bin/id/shelter.cgi?shelter=7351
139,31.522379,-97.178389,4721,W Waco Dr,Waco,TX,McLennan County,76710,https://www.homelessshelterdirectory.org/cgi-bin/id/shelter.cgi?shelter=11518
140,31.522379,-97.178389,4721,W Waco Dr,Waco,TX,McLennan County,76710,https://www.homelessshelterdirectory.org/cgi-bin/id/shelter.cgi?shelter=14762
114,32.38641,-96.852248,507,W Jefferson St,Waxahachie,TX,Ellis County,75165,https://www.homelessshelterdirectory.org/cgi-bin/id/shelter.cgi?shelter=11512
48,32.759156,-97.776717,1149,Ft Worth Hwy,Weatherford,TX,Parker County,76086,https://www.homelessshelterdirectory.org/cgi-bin/id/shelter.cgi?shelter=7478
66,29.5335,-95.121426,210,S Walnut St,Webster,TX,Harris County,77598,https://www.homelessshelterdirectory.org/cgi-bin/id/shelter.cgi?shelter=7164
249,33.905596,-98.490318,1300,Travis St,Wichita Falls,TX,Wichita County,76301,https://www.homelessshelterdirectory.org/cgi-bin/id/shelter.cgi?shelter=11514
251,33.883267,-98.483922,1101,30th St,Wichita Falls,TX,Wichita County,76302,https://www.homelessshelterdirectory.org/cgi-bin/id/shelter.cgi?shelter=7276
252,33.867386,-98.47044,710,E Hatton Rd,Wichita Falls,TX,Wichita County,76302,https://www.homelessshelterdirectory.org/cgi-bin/id/shelter.cgi?shelter=13002
250,33.915628,-98.488267,403,7th St,Wichita Falls,TX,Wichita County,76301,https://www.homelessshelterdirectory.org/cgi-bin/id/shelter.cgi?shelter=11555
2,46.978671,-123.821464,111,E 4th St,Aberdeen,WA,Grays Harbor County,98520,https://www.homelessshelterdirectory.org/cgi-bin/id/shelter.cgi?shelter=9530
3,46.975213,-123.812969,405,E Heron St,Aberdeen,WA,Grays Harbor County,98520,https://www.homelessshelterdirectory.org/cgi-bin/id/shelter.cgi?shelter=8175
4,46.971132,-123.828217,807,W 1st St,Aberdeen,WA,Grays Harbor County,98520,https://www.homelessshelterdirectory.org/cgi-bin/id/shelter.cgi?shelter=15027
1,46.974806,-123.816555,211,E Wishkah St,Aberdeen,WA,Grays Harbor County,98520,https://www.homelessshelterdirectory.org/cgi-bin/id/shelter.cgi?shelter=11764
12,48.5002,-122.613792,1011,27th St,Anacortes,WA,Skagit County,98221,https://www.homelessshelterdirectory.org/cgi-bin/id/shelter.cgi?shelter=10096
81,47.316613,-122.221211,702,10th St NE,Auburn,WA,King County,98002,https://www.homelessshelterdirectory.org/cgi-bin/id/shelter.cgi?shelter=15609
106,47.61455,-122.187722,515,116th Ave NE,Bellevue,WA,King County,98004,https://www.homelessshelterdirectory.org/cgi-bin/id/shelter.cgi?shelter=14206
107,47.61455,-122.187722,515,116th Ave NE,Bellevue,WA,King County,98004,https://www.homelessshelterdirectory.org/cgi-bin/id/shelter.cgi?shelter=14788
116,47.638293,-122.20106,3032,Bellevue Way NE,Bellevue,WA,King County,98004,https://www.homelessshelterdirectory.org/cgi-bin/id/shelter.cgi?shelter=15707
21,48.755514,-122.488317,1013,W Holly St,Bellingham,WA,Whatcom County,98225,https://www.homelessshelterdirectory.org/cgi-bin/id/shelter.cgi?shelter=15069
17,48.745547,-122.480982,1020,N State St,Bellingham,WA,Whatcom County,98225,https://www.homelessshelterdirectory.org/cgi-bin/id/shelter.cgi?shelter=14451
18,48.745547,-122.480982,1020,N State St,Bellingham,WA,Whatcom County,98225,https://www.homelessshelterdirectory.org/cgi-bin/id/shelter.cgi?shelter=14452
19,48.745289,-122.479008,1026,N Forest St,Bellingham,WA,Whatcom County,98225,https://www.homelessshelterdirectory.org/cgi-bin/id/shelter.cgi?shelter=14457
20,48.755343,-122.487038,910,W Holly St,Bellingham,WA,Whatcom County,98225,https://www.homelessshelterdirectory.org/cgi-bin/id/shelter.cgi?shelter=7708
22,48.757971,-122.473072,207,Kentucky St,Bellingham,WA,Whatcom County,98225,https://www.homelessshelterdirectory.org/cgi-bin/id/shelter.cgi?shelter=15035
124,47.565251,-122.631178,822,Burwell St,Bremerton,WA,Kitsap County,98337,https://www.homelessshelterdirectory.org/cgi-bin/id/shelter.cgi?shelter=12808
87,47.398805,-122.324111,22608,Marine View Dr S,Des Moines,WA,King County,98198,https://www.homelessshelterdirectory.org/cgi-bin/id/shelter.cgi?shelter=20331
75,47.977251,-122.206369,3000,Rockefeller Ave,Everett,WA,Snohomish County,98201,https://www.homelessshelterdirectory.org/cgi-bin/id/shelter.cgi?shelter=8047
76,47.978046,-122.191999,2929,Pine St,Everett,WA,Snohomish County,98201,https://www.homelessshelterdirectory.org/cgi-bin/id/shelter.cgi?shelter=12645
77,47.968575,-122.196459,3711,Smith Ave,Everett,WA,Snohomish County,98201,https://www.homelessshelterdirectory.org/cgi-bin/id/shelter.cgi?shelter=15348
78,47.950571,-122.1952,5126,S 2nd Ave,Everett,WA,Snohomish County,98203,https://www.homelessshelterdirectory.org/cgi-bin/id/shelter.cgi?shelter=15349
79,47.944982,-122.217104,5830,Evergreen Way,Everett,WA,Snohomish County,98203,https://www.homelessshelterdirectory.org/cgi-bin/id/shelter.cgi?shelter=15028
113,47.585314,-121.970638,27701,SE 26th Way,Sammamish,WA,King County,98075,https://www.homelessshelterdirectory.org/cgi-bin/id/shelter.cgi?shelter=7731
82,47.301386,-122.317822,1200,S 336th St,Federal Way,WA,King County,98003,https://www.homelessshelterdirectory.org/cgi-bin/id/shelter.cgi?shelter=7785
83,47.301387,-122.317192,33505,13th Pl S,Federal Way,WA,King County,98003,https://www.homelessshelterdirectory.org/cgi-bin/id/shelter.cgi?shelter=15034
84,47.383197,-122.249203,1229,W Smith St,Kent,WA,King County,98032,https://www.homelessshelterdirectory.org/cgi-bin/id/shelter.cgi?shelter=15716
85,47.383197,-122.249203,1229,W Smith St,Kent,WA,King County,98032,https://www.homelessshelterdirectory.org/cgi-bin/id/shelter.cgi?shelter=15156
86,47.383197,-122.249203,1229,W Smith St,Kent,WA,King County,98032,https://www.homelessshelterdirectory.org/cgi-bin/id/shelter.cgi?shelter=14329
119,47.675809,-122.180933,11920,NE 80th St,Kirkland,WA,King County,98033,https://www.homelessshelterdirectory.org/cgi-bin/id/shelter.cgi?shelter=15241
120,47.680746,-122.208625,701,1st St,Kirkland,WA,King County,98033,https://www.homelessshelterdirectory.org/cgi-bin/id/shelter.cgi?shelter=15711
122,47.759791,-122.284377,18403,Ballinger Way NE,Lake Forest Park,WA,King County,98155,https://www.homelessshelterdirectory.org/cgi-bin/id/shelter.cgi?shelter=8216
137,46.137673,-122.931693,1107,Broadway St,Longview,WA,Cowlitz County,98632,https://www.homelessshelterdirectory.org/cgi-bin/id/shelter.cgi?shelter=10492
123,48.938406,-122.462749,205,S Bc Ave,Lynden,WA,Whatcom County,98264,https://www.homelessshelterdirectory.org/cgi-bin/id/shelter.cgi?shelter=14456
15,48.415301,-122.336411,1008,S 3rd St,Mount Vernon,WA,Skagit County,98273,https://www.homelessshelterdirectory.org/cgi-bin/id/shelter.cgi?shelter=12027
80,47.899709,-122.291905,10924,Mukilteo Speedway,Mukilteo,WA,Snohomish County,98275,https://www.homelessshelterdirectory.org/cgi-bin/id/shelter.cgi?shelter=14003
13,48.29842,-122.636003,1791,NE 1st Ave,Oak Harbor,WA,Island County,98277,https://www.homelessshelterdirectory.org/cgi-bin/id/shelter.cgi?shelter=9501
16,48.28753,-122.654182,275,SE Pioneer Way,Oak Harbor,WA,Island County,98277,https://www.homelessshelterdirectory.org/cgi-bin/id/shelter.cgi?shelter=14453
127,47.045779,-122.899583,225,State Ave NE,Olympia,WA,Thurston County,98501,https://www.homelessshelterdirectory.org/cgi-bin/id/shelter.cgi?shelter=15037
128,47.04422,-122.860512,604,Devoe St SE,Olympia,WA,Thurston County,98501,https://www.homelessshelterdirectory.org/cgi-bin/id/shelter.cgi?shelter=15038
125,47.508632,-122.61913,1774,SE Vale Rd,Port Orchard,WA,Kitsap County,98366,https://www.homelessshelterdirectory.org/cgi-bin/id/shelter.cgi?shelter=7883
23,48.105572,-122.804832,823,Commerce Loop,Port Townsend,WA,Jefferson County,98368,https://www.homelessshelterdirectory.org/cgi-bin/id/shelter.cgi?shelter=7833
131,46.713721,-117.182813,,Fairmount Rd,Pullman,WA,Whitman County,99163,https://www.homelessshelterdirectory.org/cgi-bin/id/shelter.cgi?shelter=7334
92,47.478354,-122.212344,314,S 4th St,Renton,WA,King County,98057,https://www.homelessshelterdirectory.org/cgi-bin/id/shelter.cgi?shelter=14328
93,47.4746,-122.204878,1055,S Grady Way,Renton,WA,King County,98057,https://www.homelessshelterdirectory.org/cgi-bin/id/shelter.cgi?shelter=15161
108,47.607866,-122.332604,1118,5th Ave,Seattle,WA,King County,98101,https://www.homelessshelterdirectory.org/cgi-bin/id/shelter.cgi?shelter=8254
109,47.613296,-122.328571,1101,Pike St,Seattle,WA,King County,98101,https://www.homelessshelterdirectory.org/cgi-bin/id/shelter.cgi?shelter=7989
110,47.613198,-122.341625,2030,3rd Ave,Seattle,WA,King County,98121,https://www.homelessshelterdirectory.org/cgi-bin/id/shelter.cgi?shelter=7813
111,47.615524,-122.333971,1830,9th Ave,Seattle,WA,King County,98101,https://www.homelessshelterdirectory.org/cgi-bin/id/shelter.cgi?shelter=15160
95,47.537304,-122.283972,3802,S Othello St,Seattle,WA,King County,98118,https://www.homelessshelterdirectory.org/cgi-bin/id/shelter.cgi?shelter=8017
100,47.599414,-122.331328,318,2nd Ave S,Seattle,WA,King County,98104,https://www.homelessshelterdirectory.org/cgi-bin/id/shelter.cgi?shelter=8016
102,47.377259,-122.236467,515,3rd Ave S,Kent,WA,King County,98032,https://www.homelessshelterdirectory.org/cgi-bin/id/shelter.cgi?shelter=15155
104,47.600746,-122.335189,77,S Washington St,Seattle,WA,King County,98104,https://www.homelessshelterdirectory.org/cgi-bin/id/shelter.cgi?shelter=7466
105,47.603953,-122.330498,600,4th Ave,Seattle,WA,King County,98104,https://www.homelessshelterdirectory.org/cgi-bin/id/shelter.cgi?shelter=15159
118,47.659266,-122.312375,1415,NE 43rd St,Seattle,WA,King County,98105,https://www.homelessshelterdirectory.org/cgi-bin/id/shelter.cgi?shelter=15180
115,47.62072,-122.353764,232,Warren Ave N,Seattle,WA,King County,98109,https://www.homelessshelterdirectory.org/cgi-bin/id/shelter.cgi?shelter=7941
117,47.636512,-122.344179,1911,Aurora Ave N,Seattle,WA,King County,98109,https://www.homelessshelterdirectory.org/cgi-bin/id/shelter.cgi?shelter=15036
114,47.625122,-122.308323,620,18th Ave E,Seattle,WA,King County,98112,https://www.homelessshelterdirectory.org/cgi-bin/id/shelter.cgi?shelter=15602
112,47.615163,-122.344428,314,Bell St,Seattle,WA,King County,98121,https://www.homelessshelterdirectory.org/cgi-bin/id/shelter.cgi?shelter=15097
97,47.588596,-122.338654,1561,Alaskan Way S,Seattle,WA,King County,98134,https://www.homelessshelterdirectory.org/cgi-bin/id/shelter.cgi?shelter=7949
98,47.595494,-122.325375,811,Maynard Ave S,Seattle,WA,King County,98134,https://www.homelessshelterdirectory.org/cgi-bin/id/shelter.cgi?shelter=8236
99,47.599766,-122.314406,1265,S Main St,Seattle,WA,King County,98144,https://www.homelessshelterdirectory.org/cgi-bin/id/shelter.cgi?shelter=8015
103,47.599897,-122.334573,97,S Main St,Seattle,WA,King County,98104,https://www.homelessshelterdirectory.org/cgi-bin/id/shelter.cgi?shelter=9739
5,47.654371,-117.420781,525,W 2nd Ave,Spokane,WA,Spokane County,99201,https://www.homelessshelterdirectory.org/cgi-bin/id/shelter.cgi?shelter=8206
6,47.65339,-117.413991,111,W 3rd Ave,Spokane,WA,Spokane County,99201,https://www.homelessshelterdirectory.org/cgi-bin/id/shelter.cgi?shelter=14559
7,47.655757,-117.413068,32,W Pacific Ave,Spokane,WA,Spokane County,99201,https://www.homelessshelterdirectory.org/cgi-bin/id/shelter.cgi?shelter=9536
8,47.65026,-117.409169,101,E Hartson Ave,Spokane,WA,Spokane County,99202,https://www.homelessshelterdirectory.org/cgi-bin/id/shelter.cgi?shelter=12628
10,47.661353,-117.392,1224,E Trent Ave,Spokane,WA,Spokane County,99202,https://www.homelessshelterdirectory.org/cgi-bin/id/shelter.cgi?shelter=8173
11,47.65713,-117.382312,1910,E Sprague Ave,Spokane,WA,Spokane County,99202,https://www.homelessshelterdirectory.org/cgi-bin/id/shelter.cgi?shelter=10413
9,47.674835,-117.407501,204,E Indiana Ave,Spokane,WA,Spokane County,99207,https://www.homelessshelterdirectory.org/cgi-bin/id/shelter.cgi?shelter=15682
94,47.194193,-122.434351,6832,Pacific Ave,Tacoma,WA,Pierce County,98408,https://www.homelessshelterdirectory.org/cgi-bin/id/shelter.cgi?shelter=15083
88,47.256976,-122.443754,721,S Fawcett Ave,Tacoma,WA,Pierce County,98402,https://www.homelessshelterdirectory.org/cgi-bin/id/shelter.cgi?shelter=12868
90,47.235764,-122.439087,425,S Tacoma Way,Tacoma,WA,Pierce County,98402,https://www.homelessshelterdirectory.org/cgi-bin/id/shelter.cgi?shelter=14953
89,47.249226,-122.445977,702,S 14th St,Tacoma,WA,Pierce County,98405,https://www.homelessshelterdirectory.org/cgi-bin/id/shelter.cgi?shelter=14955
91,47.250348,-122.448959,901,S 13th St,Tacoma,WA,Pierce County,98405,https://www.homelessshelterdirectory.org/cgi-bin/id/shelter.cgi?shelter=15082
129,47.448432,-120.336512,1707,Stella Ave,Wenatchee,WA,Chelan County,98801,https://www.homelessshelterdirectory.org/cgi-bin/id/shelter.cgi?shelter=10572
121,47.761953,-122.113938,16902,NE Woodinville Duvall Rd,Woodinville,WA,King County,98072,https://www.homelessshelterdirectory.org/cgi-bin/id/shelter.cgi?shelter=20356
133,46.605659,-120.50492,221,E Martin Luther King Jr Blvd,Yakima,WA,Yakima County,98901,https://www.homelessshelterdirectory.org/cgi-bin/id/shelter.cgi?shelter=12239
135,46.600607,-120.499111,204,S Naches Ave,Yakima,WA,Yakima County,98901,https://www.homelessshelterdirectory.org/cgi-bin/id/shelter.cgi?shelter=10568
134,46.602317,-120.53084,310,N 16th Ave,Yakima,WA,Yakima County,98902,https://www.homelessshelterdirectory.org/cgi-bin/id/shelter.cgi?shelter=10569
136,46.598449,-120.520928,818,W Yakima Ave,Yakima,WA,Yakima County,98902,https://www.homelessshelterdirectory.org/cgi-bin/id/shelter.cgi?shelter=10579
99,27.88755,-81.82796,1060,US Highway 17 S,Bartow,FL,Polk County,33830,https://www.homelessshelterdirectory.org/cgi-bin/id/shelter.cgi?shelter=15593
102,26.696413,-80.682677,1500,NW Ave L,Belle Glade,FL,Palm Beach County,33430,https://www.homelessshelterdirectory.org/cgi-bin/id/shelter.cgi?shelter=14407
104,29.06191,-82.051003,5930,SE Robinson Rd,Belleview,FL,Marion County,34420,https://www.homelessshelterdirectory.org/cgi-bin/id/shelter.cgi?shelter=12698
110,28.925408,-82.461035,21,S Melbourne St,Beverly Hills,FL,Citrus County,34465,https://www.homelessshelterdirectory.org/cgi-bin/id/shelter.cgi?shelter=10462
95,26.34663,-80.0895,300,SW 2nd Ave,Boca Raton,FL,Palm Beach County,33432,https://www.homelessshelterdirectory.org/cgi-bin/id/shelter.cgi?shelter=11365
133,26.339348,-81.778179,10540,Childers St,Bonita Springs,FL,Lee County,34135,https://www.homelessshelterdirectory.org/cgi-bin/id/shelter.cgi?shelter=7223
120,26.546611,-80.062773,291,NE 19th Ave,Boynton Beach,FL,Palm Beach County,33435,https://www.homelessshelterdirectory.org/cgi-bin/id/shelter.cgi?shelter=11036
121,26.534486,-80.205086,9538,US Hwy 441,Cypress Quarters,FL,Palm Beach County,33472,https://www.homelessshelterdirectory.org/cgi-bin/id/shelter.cgi?shelter=7448
47,27.488595,-82.575515,1204,14th St W,Bradenton,FL,Manatee County,34205,https://www.homelessshelterdirectory.org/cgi-bin/id/shelter.cgi?shelter=7956
114,28.573002,-82.379075,1163,Howell Ave,Brooksville,FL,Hernando County,34601,https://www.homelessshelterdirectory.org/cgi-bin/id/shelter.cgi?shelter=9648
116,28.556302,-82.375775,1090,Mondon Hill Rd,Brooksville,FL,Hernando County,34601,https://www.homelessshelterdirectory.org/cgi-bin/id/shelter.cgi?shelter=9649
117,28.544483,-82.373671,820,Kennedy Blvd,Brooksville,FL,Hernando County,34601,https://www.homelessshelterdirectory.org/cgi-bin/id/shelter.cgi?shelter=7763
156,29.467445,-81.257983,205,N Pine St,Bunnell,FL,Flagler County,32110,https://www.homelessshelterdirectory.org/cgi-bin/id/shelter.cgi?shelter=10515
50,27.977043,-82.783975,1120,N Betty Ln,Clearwater,FL,Pinellas County,33755,https://www.homelessshelterdirectory.org/cgi-bin/id/shelter.cgi?shelter=9475
44,27.885034,-82.711734,5726,126th Ave N,Clearwater,FL,Pinellas County,33760,https://www.homelessshelterdirectory.org/cgi-bin/id/shelter.cgi?shelter=9926
45,27.90563,-82.70179,14840,49th St N,Clearwater,FL,Pinellas County,33762,https://www.homelessshelterdirectory.org/cgi-bin/id/shelter.cgi?shelter=15456
165,28.354488,-80.749244,113,Aurora St,Cocoa,FL,Brevard County,32922,https://www.homelessshelterdirectory.org/cgi-bin/id/shelter.cgi?shelter=10793
166,30.743777,-86.565936,120,Duggan Ave,Crestview,FL,Okaloosa County,32536,https://www.homelessshelterdirectory.org/cgi-bin/id/shelter.cgi?shelter=16015
111,28.898504,-82.561842,2488,N Pennsylvania Ave,Crystal River,FL,Citrus County,34428,https://www.homelessshelterdirectory.org/cgi-bin/id/shelter.cgi?shelter=9998
18,28.337843,-81.677737,,Polo Park Blvd,Davenport,FL,Polk County,33897,https://www.homelessshelterdirectory.org/cgi-bin/id/shelter.cgi?shelter=15514
159,29.221686,-81.029466,316,North St,Daytona Beach,FL,Volusia County,32114,https://www.homelessshelterdirectory.org/cgi-bin/id/shelter.cgi?shelter=13215
160,29.221702,-81.030331,605,N Segrave St,Daytona Beach,FL,Volusia County,32114,https://www.homelessshelterdirectory.org/cgi-bin/id/shelter.cgi?shelter=7549
161,29.206168,-81.01905,336,S Palmetto Ave,Daytona Beach,FL,Volusia County,32114,https://www.homelessshelterdirectory.org/cgi-bin/id/shelter.cgi?shelter=7861
162,29.200041,-81.014707,105,South St,Daytona Beach,FL,Volusia County,32114,https://www.homelessshelterdirectory.org/cgi-bin/id/shelter.cgi?shelter=8460
17,29.024659,-81.30717,259,W Voorhis Ave,Deland,FL,Volusia County,32720,https://www.homelessshelterdirectory.org/cgi-bin/id/shelter.cgi?shelter=8461
118,26.473504,-80.064267,840,George Bush Blvd,Delray Beach,FL,Palm Beach County,33483,https://www.homelessshelterdirectory.org/cgi-bin/id/shelter.cgi?shelter=11029
170,30.394443,-86.504194,307,Harbor Blvd,Destin,FL,Okaloosa County,32541,https://www.homelessshelterdirectory.org/cgi-bin/id/shelter.cgi?shelter=20340
15,28.835688,-81.685989,16,W St Louis Ave,Eustis,FL,Lake County,32726,https://www.homelessshelterdirectory.org/cgi-bin/id/shelter.cgi?shelter=13958
75,26.135714,-80.15042,920,NW 7th Ave,Fort Lauderdale,FL,Broward County,33311,https://www.homelessshelterdirectory.org/cgi-bin/id/shelter.cgi?shelter=11007
73,26.133702,-80.105698,733,Breakers Ave,Fort Lauderdale,FL,Broward County,33304,https://www.homelessshelterdirectory.org/cgi-bin/id/shelter.cgi?shelter=11003
89,26.169057,-80.157548,3217,NW 10th Ter,Fort Lauderdale,FL,Broward County,33309,https://www.homelessshelterdirectory.org/cgi-bin/id/shelter.cgi?shelter=11030
79,26.138908,-80.143783,1100,N Andrews Ave,Fort Lauderdale,FL,Broward County,33311,https://www.homelessshelterdirectory.org/cgi-bin/id/shelter.cgi?shelter=11008
69,26.122331,-80.16077,1445,W Broward Blvd,Fort Lauderdale,FL,Broward County,33312,https://www.homelessshelterdirectory.org/cgi-bin/id/shelter.cgi?shelter=11002
64,26.091044,-80.209264,4361,SW 25th St,Fort Lauderdale,FL,Broward County,33317,https://www.homelessshelterdirectory.org/cgi-bin/id/shelter.cgi?shelter=8134
140,26.633065,-81.86385,2400,Edison Ave,Fort Myers,FL,Lee County,33901,https://www.homelessshelterdirectory.org/cgi-bin/id/shelter.cgi?shelter=7959
142,26.662461,-81.827701,4231,Desoto Ave,Fort Myers,FL,Lee County,33905,https://www.homelessshelterdirectory.org/cgi-bin/id/shelter.cgi?shelter=13689
143,26.667278,-81.815614,599,Carolina Ave,Fort Myers,FL,Lee County,33905,https://www.homelessshelterdirectory.org/cgi-bin/id/shelter.cgi?shelter=13631
176,27.446949,-80.335888,1203,Orange Ave,Fort Pierce,FL,St. Lucie County,34950,https://www.homelessshelterdirectory.org/cgi-bin/id/shelter.cgi?shelter=11033
167,30.424694,-86.652834,305,Lovejoy Rd,Fort Walton Beach,FL,Okaloosa County,32548,https://www.homelessshelterdirectory.org/cgi-bin/id/shelter.cgi?shelter=14920
168,30.414944,-86.612021,8,Bobolink St NE,Fort Walton Beach,FL,Okaloosa County,32548,https://www.homelessshelterdirectory.org/cgi-bin/id/shelter.cgi?shelter=14630
169,30.410754,-86.601141,16,Ferry Rd SE,Fort Walton Beach,FL,Okaloosa County,32548,https://www.homelessshelterdirectory.org/cgi-bin/id/shelter.cgi?shelter=14631
97,27.745473,-81.53035,17,Scenic Hwy S,Frostproof,FL,Polk County,33843,https://www.homelessshelterdirectory.org/cgi-bin/id/shelter.cgi?shelter=7488
72,26.135714,-80.15042,920,NW 7th Ave,Fort Lauderdale,FL,Broward County,33311,https://www.homelessshelterdirectory.org/cgi-bin/id/shelter.cgi?shelter=7218
141,26.643548,-81.831982,6900,Mission Ln,Fort Myers,FL,Lee County,33916,https://www.homelessshelterdirectory.org/cgi-bin/id/shelter.cgi?shelter=7489
1,29.649925,-82.329679,226,SW 5th St,Gainesville,FL,Alachua County,32601,https://www.homelessshelterdirectory.org/cgi-bin/id/shelter.cgi?shelter=13389
2,29.648058,-82.324821,413,S Main St,Gainesville,FL,Alachua County,32601,https://www.homelessshelterdirectory.org/cgi-bin/id/shelter.cgi?shelter=12265
4,29.680298,-82.288164,3055,NE 28th Dr,Gainesville,FL,Alachua County,32609,https://www.homelessshelterdirectory.org/cgi-bin/id/shelter.cgi?shelter=15237
62,25.994069,-80.158469,750,NW 8th Ave,Hallandale Beach,FL,Broward County,33009,https://www.homelessshelterdirectory.org/cgi-bin/id/shelter.cgi?shelter=15302
70,25.890454,-80.293816,7450,W 4th Ave,Hialeah,FL,Miami-Dade County,33014,https://www.homelessshelterdirectory.org/cgi-bin/id/shelter.cgi?shelter=11369
182,27.058233,-80.135411,12001,SE Federal Hwy,Hobe Sound,FL,Martin County,33455,https://www.homelessshelterdirectory.org/cgi-bin/id/shelter.cgi?shelter=8065
157,29.239675,-81.038705,810,Ridgewood Ave,Daytona Beach,FL,Volusia County,32117,https://www.homelessshelterdirectory.org/cgi-bin/id/shelter.cgi?shelter=8459
158,29.234733,-81.034776,501,Ridgewood Ave,Daytona Beach,FL,Volusia County,32117,https://www.homelessshelterdirectory.org/cgi-bin/id/shelter.cgi?shelter=7380
63,26.029579,-80.148185,2020,Scott St,Hollywood,FL,Broward County,33020,https://www.homelessshelterdirectory.org/cgi-bin/id/shelter.cgi?shelter=7674
66,26.039679,-80.165985,3400,N 29th Ave,Hollywood,FL,Broward County,33020,https://www.homelessshelterdirectory.org/cgi-bin/id/shelter.cgi?shelter=15347
65,26.029564,-80.148936,2056,Scott St,Hollywood,FL,Broward County,33020,https://www.homelessshelterdirectory.org/cgi-bin/id/shelter.cgi?shelter=11005
100,25.4844,-80.3908,28205,SW 125th Ave,Homestead,FL,Miami-Dade County,33033,https://www.homelessshelterdirectory.org/cgi-bin/id/shelter.cgi?shelter=11026
113,28.80437,-82.557906,7463,W Grover Cleveland Blvd,Homosassa,FL,Citrus County,34446,https://www.homelessshelterdirectory.org/cgi-bin/id/shelter.cgi?shelter=14929
155,28.362865,-82.69823,14121,Water Tower Dr,Hudson,FL,Pasco County,34667,https://www.homelessshelterdirectory.org/cgi-bin/id/shelter.cgi?shelter=10321
144,26.418867,-81.422629,602,W Main St,Immokalee,FL,Collier County,34142,https://www.homelessshelterdirectory.org/cgi-bin/id/shelter.cgi?shelter=7635
109,28.831113,-82.329168,306,S Park Ave,Inverness,FL,Citrus County,34452,https://www.homelessshelterdirectory.org/cgi-bin/id/shelter.cgi?shelter=15030
21,30.286971,-81.397405,800,Shetter Ave,Jacksonville Beach,FL,Duval County,32250,https://www.homelessshelterdirectory.org/cgi-bin/id/shelter.cgi?shelter=9226
20,30.333355,-81.659554,234,State St W,Jacksonville,FL,Duval County,32202,https://www.homelessshelterdirectory.org/cgi-bin/id/shelter.cgi?shelter=7310
22,30.32697,-81.648995,611,Adams St E,Jacksonville,FL,Duval County,32202,https://www.homelessshelterdirectory.org/cgi-bin/id/shelter.cgi?shelter=7632
23,30.333702,-81.664222,622,Union St W,Jacksonville,FL,Duval County,32202,https://www.homelessshelterdirectory.org/cgi-bin/id/shelter.cgi?shelter=15209
24,30.332639,-81.664252,613,Ashley St W,Jacksonville,FL,Duval County,32202,https://www.homelessshelterdirectory.org/cgi-bin/id/shelter.cgi?shelter=10313
25,30.27082,-81.591041,3015,Parental Home Rd,Jacksonville,FL,Duval County,32216,https://www.homelessshelterdirectory.org/cgi-bin/id/shelter.cgi?shelter=8264
198,24.56575,-81.76033,1614,Truesdell Ct,Key West,FL,Monroe County,33040,https://www.homelessshelterdirectory.org/cgi-bin/id/shelter.cgi?shelter=7999
199,24.576456,-81.749419,5537,College Rd,Key West,FL,Monroe County,33040,https://www.homelessshelterdirectory.org/cgi-bin/id/shelter.cgi?shelter=15001
16,28.29633,-81.410823,330,N Beaumont Ave,Kissimmee,FL,Osceola County,34741,https://www.homelessshelterdirectory.org/cgi-bin/id/shelter.cgi?shelter=15580
194,30.195549,-82.637767,127,Escambia St NW,Lake City,FL,Columbia County,32055,https://www.homelessshelterdirectory.org/cgi-bin/id/shelter.cgi?shelter=8097
98,27.902535,-81.5887,140,Park Ave E,Lake Wales,FL,Polk County,33853,https://www.homelessshelterdirectory.org/cgi-bin/id/shelter.cgi?shelter=7693
123,26.617001,-80.106083,4051,Kirk Rd,Lake Worth,FL,Palm Beach County,33461,https://www.homelessshelterdirectory.org/cgi-bin/id/shelter.cgi?shelter=11366
124,26.618089,-80.065323,1712,2nd Ave N,Lake Worth Beach,FL,Palm Beach County,33460,https://www.homelessshelterdirectory.org/cgi-bin/id/shelter.cgi?shelter=15584
51,28.042726,-81.621548,100,Smith Ave,Haines City,FL,Polk County,33844,https://www.homelessshelterdirectory.org/cgi-bin/id/shelter.cgi?shelter=14811
153,28.05194,-81.955507,814,Kentucky Ave N,Lakeland,FL,Polk County,33801,https://www.homelessshelterdirectory.org/cgi-bin/id/shelter.cgi?shelter=8102
154,28.05494,-81.94831,801,E Memorial Blvd,Lakeland,FL,Polk County,33801,https://www.homelessshelterdirectory.org/cgi-bin/id/shelter.cgi?shelter=14684
152,28.049063,-81.956436,117,E Magnolia St,Lakeland,FL,Polk County,33801,https://www.homelessshelterdirectory.org/cgi-bin/id/shelter.cgi?shelter=7707
91,26.16656,-80.242799,7155,W Oakland Park Blvd,Lauderhill,FL,Broward County,33313,https://www.homelessshelterdirectory.org/cgi-bin/id/shelter.cgi?shelter=15344
52,28.81377,-81.861785,1010,E North Blvd,Leesburg,FL,Lake County,34748,https://www.homelessshelterdirectory.org/cgi-bin/id/shelter.cgi?shelter=7700
53,28.811459,-81.885194,115,N 13th St,Leesburg,FL,Lake County,34748,https://www.homelessshelterdirectory.org/cgi-bin/id/shelter.cgi?shelter=13956
54,28.811459,-81.885194,115,N 13th St,Leesburg,FL,Lake County,34748,https://www.homelessshelterdirectory.org/cgi-bin/id/shelter.cgi?shelter=13957
55,28.811459,-81.885194,115,N 13th St,Leesburg,FL,Lake County,34748,https://www.homelessshelterdirectory.org/cgi-bin/id/shelter.cgi?shelter=7284
56,28.811459,-81.885194,115,N 13th St,Leesburg,FL,Lake County,34748,https://www.homelessshelterdirectory.org/cgi-bin/id/shelter.cgi?shelter=8245
57,28.811984,-81.886216,1309,High St,Leesburg,FL,Lake County,34748,https://www.homelessshelterdirectory.org/cgi-bin/id/shelter.cgi?shelter=13955
76,25.790962,-80.135667,701,Lincoln Rd,Miami Beach,FL,Miami-Dade County,33139,https://www.homelessshelterdirectory.org/cgi-bin/id/shelter.cgi?shelter=7400
71,25.810842,-80.197738,3620,NW 1st Ave,Miami,FL,Miami-Dade County,33127,https://www.homelessshelterdirectory.org/cgi-bin/id/shelter.cgi?shelter=7805
77,25.798943,-80.196303,2236,NW Miami Ct,Miami,FL,Miami-Dade County,33127,https://www.homelessshelterdirectory.org/cgi-bin/id/shelter.cgi?shelter=11367
78,25.798701,-80.197124,2250,NW 1st Ave,Miami,FL,Miami-Dade County,33127,https://www.homelessshelterdirectory.org/cgi-bin/id/shelter.cgi?shelter=7762
81,25.797908,-80.197506,2159,NW CT 1,Miami,FL,Miami-Dade County,33127,https://www.homelessshelterdirectory.org/cgi-bin/id/shelter.cgi?shelter=15319
85,25.791434,-80.207666,724,NW 17th St,Miami,FL,Miami-Dade County,33136,https://www.homelessshelterdirectory.org/cgi-bin/id/shelter.cgi?shelter=7723
88,25.776,-80.196946,111,NW 1st St,Miami,FL,Miami-Dade County,33128,https://www.homelessshelterdirectory.org/cgi-bin/id/shelter.cgi?shelter=15318
87,25.774471,-80.189667,223,E Flagler St,Miami,FL,Miami-Dade County,33131,https://www.homelessshelterdirectory.org/cgi-bin/id/shelter.cgi?shelter=11027
82,25.789934,-80.195204,1550,N Miami Ave,Miami,FL,Miami-Dade County,33136,https://www.homelessshelterdirectory.org/cgi-bin/id/shelter.cgi?shelter=7595
83,25.789934,-80.195204,1550,N Miami Ave,Miami,FL,Miami-Dade County,33136,https://www.homelessshelterdirectory.org/cgi-bin/id/shelter.cgi?shelter=10207
84,25.789901,-80.199246,217,NW 15th St,Miami,FL,Miami-Dade County,33136,https://www.homelessshelterdirectory.org/cgi-bin/id/shelter.cgi?shelter=7082
86,25.79062,-80.206447,1603,NW 7th Ave,Miami,FL,Miami-Dade County,33136,https://www.homelessshelterdirectory.org/cgi-bin/id/shelter.cgi?shelter=7225
68,25.820314,-80.192705,162,NE 49th St,Miami,FL,Miami-Dade County,33137,https://www.homelessshelterdirectory.org/cgi-bin/id/shelter.cgi?shelter=7352
67,25.836427,-80.202998,361,NW 67th St,Miami,FL,Miami-Dade County,33150,https://www.homelessshelterdirectory.org/cgi-bin/id/shelter.cgi?shelter=11368
80,25.81158,-80.23006,1907,NW 38th St,Miami,FL,Miami-Dade County,33142,https://www.homelessshelterdirectory.org/cgi-bin/id/shelter.cgi?shelter=7975
74,25.805188,-80.207017,3033,NW 7th Ave,Miami,FL,Miami-Dade County,33127,https://www.homelessshelterdirectory.org/cgi-bin/id/shelter.cgi?shelter=7759
136,26.140899,-81.767987,3180,Estey Ave,Naples,FL,Collier County,34104,https://www.homelessshelterdirectory.org/cgi-bin/id/shelter.cgi?shelter=7960
137,26.134769,-81.765637,2001,Airport Rd S,Naples,FL,Collier County,34112,https://www.homelessshelterdirectory.org/cgi-bin/id/shelter.cgi?shelter=9744
138,26.12728,-81.767728,3174,Tamiami Trl E,Naples,FL,Collier County,34112,https://www.homelessshelterdirectory.org/cgi-bin/id/shelter.cgi?shelter=7251
139,26.117617,-81.682632,3805,The Lords Way,Naples,FL,Collier County,34114,https://www.homelessshelterdirectory.org/cgi-bin/id/shelter.cgi?shelter=7141
60,27.051419,-82.242612,6919,Outreach Way,North Port,FL,Sarasota County,34287,https://www.homelessshelterdirectory.org/cgi-bin/id/shelter.cgi?shelter=7818
90,26.180455,-80.148368,221,NW CT 43,Fort Lauderdale,FL,Broward County,33309,https://www.homelessshelterdirectory.org/cgi-bin/id/shelter.cgi?shelter=11004
107,29.205768,-82.127925,1839,NE 8th Rd,Ocala,FL,Marion County,34470,https://www.homelessshelterdirectory.org/cgi-bin/id/shelter.cgi?shelter=20395
105,29.19005,-82.137929,320,NW 1st Ave,Ocala,FL,Marion County,34475,https://www.homelessshelterdirectory.org/cgi-bin/id/shelter.cgi?shelter=7972
106,29.189067,-82.141711,435,NW 2nd St,Ocala,FL,Marion County,34475,https://www.homelessshelterdirectory.org/cgi-bin/id/shelter.cgi?shelter=7647
9,28.543012,-81.387768,18,N Terry Ave,Orlando,FL,Orange County,32801,https://www.homelessshelterdirectory.org/cgi-bin/id/shelter.cgi?shelter=15578
10,28.54213,-81.388569,639,W Central Blvd,Orlando,FL,Orange County,32801,https://www.homelessshelterdirectory.org/cgi-bin/id/shelter.cgi?shelter=7323
11,28.541687,-81.384559,410,W Central Blvd,Orlando,FL,Orange County,32801,https://www.homelessshelterdirectory.org/cgi-bin/id/shelter.cgi?shelter=7845
5,28.572621,-81.372676,2313,N Orange Ave,Orlando,FL,Orange County,32804,https://www.homelessshelterdirectory.org/cgi-bin/id/shelter.cgi?shelter=11071
6,28.552797,-81.384387,400,W Colonial Dr,Orlando,FL,Orange County,32804,https://www.homelessshelterdirectory.org/cgi-bin/id/shelter.cgi?shelter=7958
7,28.5519,-81.384356,624,Lexington Ave,Orlando,FL,Orange County,32801,https://www.homelessshelterdirectory.org/cgi-bin/id/shelter.cgi?shelter=7983
12,28.560617,-81.307418,5931,E Colonial Dr,Orlando,FL,Orange County,32807,https://www.homelessshelterdirectory.org/cgi-bin/id/shelter.cgi?shelter=10224
8,28.553179,-81.427528,3955,W Colonial Dr,Orlando,FL,Orange County,32808,https://www.homelessshelterdirectory.org/cgi-bin/id/shelter.cgi?shelter=11355
103,26.834525,-80.649904,1749,E Main St,Pahokee,FL,Palm Beach County,33476,https://www.homelessshelterdirectory.org/cgi-bin/id/shelter.cgi?shelter=20475
163,29.653949,-81.656308,2600,Peters St,Palatka,FL,Putnam County,32177,https://www.homelessshelterdirectory.org/cgi-bin/id/shelter.cgi?shelter=15511
191,30.175726,-85.688268,1824,W 15th St,Panama City,FL,Bay County,32401,https://www.homelessshelterdirectory.org/cgi-bin/id/shelter.cgi?shelter=14134
192,30.159282,-85.655489,609,Allen Ave,Panama City,FL,Bay County,32401,https://www.homelessshelterdirectory.org/cgi-bin/id/shelter.cgi?shelter=7863
193,30.167258,-85.619099,3128,11th St E,Panama City,FL,Bay County,32401,https://www.homelessshelterdirectory.org/cgi-bin/id/shelter.cgi?shelter=7256
183,30.47895,-87.286334,,Liana Ln,Pensacola,FL,Escambia County,32505,https://www.homelessshelterdirectory.org/cgi-bin/id/shelter.cgi?shelter=7710
185,30.426013,-87.245091,1310,N S St,Pensacola,FL,Escambia County,32505,https://www.homelessshelterdirectory.org/cgi-bin/id/shelter.cgi?shelter=7980
186,30.429169,-87.246131,1614,N T St,Pensacola,FL,Escambia County,32505,https://www.homelessshelterdirectory.org/cgi-bin/id/shelter.cgi?shelter=9572
187,30.449224,-87.235943,380,W Herman St,Pensacola,FL,Escambia County,32505,https://www.homelessshelterdirectory.org/cgi-bin/id/shelter.cgi?shelter=8151
188,30.465036,-87.23971,31,Murphy Ln,Pensacola,FL,Escambia County,32505,https://www.homelessshelterdirectory.org/cgi-bin/id/shelter.cgi?shelter=7110
189,30.520433,-87.268648,50,W Johnson Ave,Pensacola,FL,Escambia County,32534,https://www.homelessshelterdirectory.org/cgi-bin/id/shelter.cgi?shelter=15865
92,26.24332,-80.124205,153,NW 12th St,Pompano Beach,FL,Broward County,33060,https://www.homelessshelterdirectory.org/cgi-bin/id/shelter.cgi?shelter=15299
93,26.251605,-80.16384,1698,Blount Rd,Pompano Beach,FL,Broward County,33069,https://www.homelessshelterdirectory.org/cgi-bin/id/shelter.cgi?shelter=15300
94,26.252998,-80.162834,1700,Blount Rd,Pompano Beach,FL,Broward County,33069,https://www.homelessshelterdirectory.org/cgi-bin/id/shelter.cgi?shelter=11006
59,27.00495,-82.157925,1476,Kenesaw St,Port Charlotte,FL,Charlotte County,33948,https://www.homelessshelterdirectory.org/cgi-bin/id/shelter.cgi?shelter=9680
145,26.778299,-80.055141,1901,Broadway,Riviera Beach,FL,Palm Beach County,33404,https://www.homelessshelterdirectory.org/cgi-bin/id/shelter.cgi?shelter=11667
146,26.778953,-80.059716,200,W 20th St,Riviera Beach,FL,Palm Beach County,33404,https://www.homelessshelterdirectory.org/cgi-bin/id/shelter.cgi?shelter=14928
164,28.290567,-80.69772,4087,Highway 1 S,Rockledge,FL,Brevard County,32955,https://www.homelessshelterdirectory.org/cgi-bin/id/shelter.cgi?shelter=15586
172,29.868578,-81.326665,1797,Old Moultrie Rd,Saint Augustine,FL,St. Johns County,32084,https://www.homelessshelterdirectory.org/cgi-bin/id/shelter.cgi?shelter=13826
173,29.878067,-81.323239,1375,Arapaho Ave,Saint Augustine,FL,St. Johns County,32084,https://www.homelessshelterdirectory.org/cgi-bin/id/shelter.cgi?shelter=11122
175,29.888484,-81.313588,70,Washington St,Saint Augustine,FL,St. Johns County,32084,https://www.homelessshelterdirectory.org/cgi-bin/id/shelter.cgi?shelter=13825
13,28.800865,-81.285675,1701,W 13th St,Sanford,FL,Seminole County,32771,https://www.homelessshelterdirectory.org/cgi-bin/id/shelter.cgi?shelter=7914
147,27.344592,-82.540989,1400,10th St,Sarasota,FL,Sarasota County,34236,https://www.homelessshelterdirectory.org/cgi-bin/id/shelter.cgi?shelter=7985
148,27.340633,-82.539896,507,Kumquat Ct,Sarasota,FL,Sarasota County,34236,https://www.homelessshelterdirectory.org/cgi-bin/id/shelter.cgi?shelter=7919
149,27.351553,-82.495791,3650,17th St,Sarasota,FL,Sarasota County,34235,https://www.homelessshelterdirectory.org/cgi-bin/id/shelter.cgi?shelter=10143
96,27.500038,-81.436663,604,Lemon St,Sebring,FL,Highlands County,33870,https://www.homelessshelterdirectory.org/cgi-bin/id/shelter.cgi?shelter=7806
32,27.756671,-82.637687,310,14th Ave S,Saint Petersburg,FL,Pinellas County,33701,https://www.homelessshelterdirectory.org/cgi-bin/id/shelter.cgi?shelter=7957
34,27.777759,-82.64301,701,5th Ave N,Saint Petersburg,FL,Pinellas County,33701,https://www.homelessshelterdirectory.org/cgi-bin/id/shelter.cgi?shelter=7087
36,27.775535,-82.646015,863,3rd Ave N,Saint Petersburg,FL,Pinellas County,33701,https://www.homelessshelterdirectory.org/cgi-bin/id/shelter.cgi?shelter=8060
39,27.8071,-82.671119,3835,28th St N,Saint Petersburg,FL,Pinellas County,33714,https://www.homelessshelterdirectory.org/cgi-bin/id/shelter.cgi?shelter=12240
174,29.89317,-81.328786,62,Chapin St,Saint Augustine,FL,St. Johns County,32084,https://www.homelessshelterdirectory.org/cgi-bin/id/shelter.cgi?shelter=13824
180,27.194304,-80.240025,821,SE Martin Luther King Jr Blvd,Stuart,FL,Martin County,34994,https://www.homelessshelterdirectory.org/cgi-bin/id/shelter.cgi?shelter=7965
19,27.186973,-80.235142,1033,SE 14th St,Stuart,FL,Martin County,34994,https://www.homelessshelterdirectory.org/cgi-bin/id/shelter.cgi?shelter=13135
181,27.166673,-80.219614,2484,SE Bonita St,Stuart,FL,Martin County,34997,https://www.homelessshelterdirectory.org/cgi-bin/id/shelter.cgi?shelter=7667
207,30.453951,-84.290232,606,W 4th Ave,Tallahassee,FL,Leon County,32303,https://www.homelessshelterdirectory.org/cgi-bin/id/shelter.cgi?shelter=16018
209,30.453711,-84.280097,1105,N Monroe St,Tallahassee,FL,Leon County,32303,https://www.homelessshelterdirectory.org/cgi-bin/id/shelter.cgi?shelter=13243
204,30.440378,-84.331061,2650,Municipal Way,Tallahassee,FL,Leon County,32304,https://www.homelessshelterdirectory.org/cgi-bin/id/shelter.cgi?shelter=8148
206,30.474197,-84.2869,325,John Knox Rd,Tallahassee,FL,Leon County,32303,https://www.homelessshelterdirectory.org/cgi-bin/id/shelter.cgi?shelter=7609
208,30.43243,-84.304146,1224,Eppes Dr,Tallahassee,FL,Leon County,32304,https://www.homelessshelterdirectory.org/cgi-bin/id/shelter.cgi?shelter=10007
203,30.455134,-84.345308,1380,Blountstown Hwy,Tallahassee,FL,Leon County,32304,https://www.homelessshelterdirectory.org/cgi-bin/id/shelter.cgi?shelter=7247
205,30.480637,-84.29667,2810,Sharer Rd,Tallahassee,FL,Leon County,32312,https://www.homelessshelterdirectory.org/cgi-bin/id/shelter.cgi?shelter=16017
212,30.460741,-84.227507,3004,Mahan Dr,Tallahassee,FL,Leon County,32308,https://www.homelessshelterdirectory.org/cgi-bin/id/shelter.cgi?shelter=15254
29,27.946986,-82.456151,401,E Jackson St,Tampa,FL,Hillsborough County,33602,https://www.homelessshelterdirectory.org/cgi-bin/id/shelter.cgi?shelter=20400
30,27.959305,-82.459686,1514,N Florida Ave,Tampa,FL,Hillsborough County,33602,https://www.homelessshelterdirectory.org/cgi-bin/id/shelter.cgi?shelter=11099
31,27.963878,-82.45978,2301,N Tampa St,Tampa,FL,Hillsborough County,33602,https://www.homelessshelterdirectory.org/cgi-bin/id/shelter.cgi?shelter=7758
33,27.971074,-82.459434,3000,N Florida Ave,Tampa,FL,Hillsborough County,33603,https://www.homelessshelterdirectory.org/cgi-bin/id/shelter.cgi?shelter=12018
37,27.983489,-82.451528,4202,N Nebraska Ave,Tampa,FL,Hillsborough County,33603,https://www.homelessshelterdirectory.org/cgi-bin/id/shelter.cgi?shelter=10297
41,28.008591,-82.48504,6718,N Armenia Ave,Tampa,FL,Hillsborough County,33604,https://www.homelessshelterdirectory.org/cgi-bin/id/shelter.cgi?shelter=11130
42,28.027377,-82.451103,8535,N Nebraska Ave,Tampa,FL,Hillsborough County,33604,https://www.homelessshelterdirectory.org/cgi-bin/id/shelter.cgi?shelter=11121
38,27.987548,-82.394792,4612,N 56th St,Tampa,FL,Hillsborough County,33610,https://www.homelessshelterdirectory.org/cgi-bin/id/shelter.cgi?shelter=15164
40,28.010944,-82.406,4428,E Sligh Ave,Tampa,FL,Hillsborough County,33610,https://www.homelessshelterdirectory.org/cgi-bin/id/shelter.cgi?shelter=12006
48,28.076728,-82.439626,1812,E 143rd Ave,Tampa,FL,Hillsborough County,33613,https://www.homelessshelterdirectory.org/cgi-bin/id/shelter.cgi?shelter=13300
35,27.977418,-82.402875,3630,N 50th St,Tampa,FL,Hillsborough County,33619,https://www.homelessshelterdirectory.org/cgi-bin/id/shelter.cgi?shelter=20459
177,27.609288,-80.387596,720,4th St,Vero Beach,FL,Indian River County,32962,https://www.homelessshelterdirectory.org/cgi-bin/id/shelter.cgi?shelter=7596
178,27.619951,-80.389957,1015,Commerce Ave,Vero Beach,FL,Indian River County,32960,https://www.homelessshelterdirectory.org/cgi-bin/id/shelter.cgi?shelter=8150
179,27.668661,-80.422361,3650,41st St,Vero Beach,FL,Indian River County,32967,https://www.homelessshelterdirectory.org/cgi-bin/id/shelter.cgi?shelter=20290
151,28.217771,-82.263598,4158,Lado Dr,Wesley Chapel,FL,Pasco County,33543,https://www.homelessshelterdirectory.org/cgi-bin/id/shelter.cgi?shelter=15636
128,26.725324,-80.056998,1320,Henrietta Ave,West Palm Beach,FL,Palm Beach County,33401,https://www.homelessshelterdirectory.org/cgi-bin/id/shelter.cgi?shelter=11034
125,26.687166,-80.065033,1003,Allendale Rd,West Palm Beach,FL,Palm Beach County,33405,https://www.homelessshelterdirectory.org/cgi-bin/id/shelter.cgi?shelter=15583
129,26.732435,-80.053142,2107,N Dixie Hwy,West Palm Beach,FL,Palm Beach County,33407,https://www.homelessshelterdirectory.org/cgi-bin/id/shelter.cgi?shelter=10592
130,26.738799,-80.068013,2808,N Australian Ave,West Palm Beach,FL,Palm Beach County,33407,https://www.homelessshelterdirectory.org/cgi-bin/id/shelter.cgi?shelter=11028
131,26.752747,-80.066754,1000,45th St,West Palm Beach,FL,Palm Beach County,33407,https://www.homelessshelterdirectory.org/cgi-bin/id/shelter.cgi?shelter=12384
132,26.754422,-80.081438,1715,E Tiffany Dr,Mangonia Park,FL,Palm Beach County,33407,https://www.homelessshelterdirectory.org/cgi-bin/id/shelter.cgi?shelter=15582
126,26.700027,-80.113948,1577,N Military Trl,West Palm Beach,FL,Palm Beach County,33409,https://www.homelessshelterdirectory.org/cgi-bin/id/shelter.cgi?shelter=11290
127,26.712438,-80.094148,2122,Palm Beach Lakes Blvd,West Palm Beach,FL,Palm Beach County,33409,https://www.homelessshelterdirectory.org/cgi-bin/id/shelter.cgi?shelter=7977
28,27.663192,-82.362204,18240,S US Highway 301,Wimauma,FL,Hillsborough County,33598,https://www.homelessshelterdirectory.org/cgi-bin/id/shelter.cgi?shelter=11131
14,28.74216,-81.614443,6215,Holly St,Mount Dora,FL,Orange County,32757,https://www.homelessshelterdirectory.org/cgi-bin/id/shelter.cgi?shelter=13959
